HIERARCHY
ROOT hip
{
  OFFSET 0 0 0
  CHANNELS 6 Xposition Yposition Zposition Zrotation Yrotation Xrotation
  JOINT abdomen
  {
    OFFSET 0 20.6881 -0.73152
    CHANNELS 3 Zrotation Xrotation Yrotation
    JOINT chest
    {
      OFFSET 0 11.7043 -0.48768
      CHANNELS 3 Zrotation Xrotation Yrotation
      JOINT neck
      {
        OFFSET 0 22.1894 -2.19456
        CHANNELS 3 Zrotation Xrotation Yrotation
        JOINT head
        {
          OFFSET -0.24384 7.07133 1.2192
          CHANNELS 3 Zrotation Xrotation Yrotation
          JOINT leftEye
          {
            OFFSET 4.14528 8.04674 8.04672
            CHANNELS 3 Zrotation Xrotation Yrotation
            End Site
            {
              OFFSET 1 0 0
            }
          }
          JOINT rightEye
          {
            OFFSET -3.6576 8.04674 8.04672
            CHANNELS 3 Zrotation Xrotation Yrotation
            End Site
            {
              OFFSET 1 0 0
            }
          }
        }
      }
      JOINT rCollar
      {
        OFFSET -2.68224 19.2634 -4.8768
        CHANNELS 3 Zrotation Xrotation Yrotation
        JOINT rShldr
        {
          OFFSET -8.77824 -1.95073 1.46304
          CHANNELS 3 Zrotation Xrotation Yrotation
          JOINT rForeArm
          {
            OFFSET -28.1742 -1.7115 0.48768
            CHANNELS 3 Zrotation Xrotation Yrotation
            JOINT rHand
            {
              OFFSET -22.5879 0.773209 7.07136
              CHANNELS 3 Zrotation Xrotation Yrotation
              JOINT rThumb1
              {
                OFFSET -1.2192 -0.487915 3.41376
                CHANNELS 3 Zrotation Xrotation Yrotation
                JOINT rThumb2
                {
                  OFFSET -3.37035 -0.52449 3.41376
                  CHANNELS 3 Zrotation Xrotation Yrotation
                  End Site
                  {
                    OFFSET -1.78271 -1.18214 1.43049
                  }
                }
              }
              JOINT rIndex1
              {
                OFFSET -7.75947 0.938293 5.60832
                CHANNELS 3 Zrotation Xrotation Yrotation
                JOINT rIndex2
                {
                  OFFSET -2.54057 -0.884171 1.56538
                  CHANNELS 3 Zrotation Xrotation Yrotation
                  End Site
                  {
                    OFFSET -1.62519 -0.234802 1.16502
                  }
                }
              }
              JOINT rMid1
              {
                OFFSET -8.24714 1.18213 3.41376
                CHANNELS 3 Zrotation Xrotation Yrotation
                JOINT rMid2
                {
                  OFFSET -3.10165 -0.590103 1.0647
                  CHANNELS 3 Zrotation Xrotation Yrotation
                  End Site
                  {
                    OFFSET -2.48547 -0.328903 0.83742
                  }
                }
              }
              JOINT rRing1
              {
                OFFSET -8.82822 0.546677 1.51678
                CHANNELS 3 Zrotation Xrotation Yrotation
                JOINT rRing2
                {
                  OFFSET -2.60934 -0.819778 -0.0198488
                  CHANNELS 3 Zrotation Xrotation Yrotation
                  End Site
                  {
                    OFFSET -2.33842 -0.294052 0.168128
                  }
                }
              }
              JOINT rPinky1
              {
                OFFSET -8.27202 -0.0477905 -0.4584
                CHANNELS 3 Zrotation Xrotation Yrotation
                JOINT rPinky2
                {
                  OFFSET -1.82734 -0.647385 -0.700984
                  CHANNELS 3 Zrotation Xrotation Yrotation
                  End Site
                  {
                    OFFSET -1.69225 -0.51767 -0.607171
                  }
                }
              }
            }
          }
        }
      }
      JOINT lCollar
      {
        OFFSET 2.68224 19.2634 -4.8768
        CHANNELS 3 Zrotation Xrotation Yrotation
        JOINT lShldr
        {
          OFFSET 8.77824 -1.95073 1.46304
          CHANNELS 3 Zrotation Xrotation Yrotation
          JOINT lForeArm
          {
            OFFSET 28.1742 -1.7115 0.48768
            CHANNELS 3 Zrotation Xrotation Yrotation
            JOINT lHand
            {
              OFFSET 22.5879 0.773209 7.07136
              CHANNELS 3 Zrotation Xrotation Yrotation
              JOINT lThumb1
              {
                OFFSET 1.2192 -0.487915 3.41376
                CHANNELS 3 Zrotation Xrotation Yrotation
                JOINT lThumb2
                {
                  OFFSET 3.37035 -0.52449 3.41376
                  CHANNELS 3 Zrotation Xrotation Yrotation
                  End Site
                  {
                    OFFSET 1.78271 -1.18214 1.43049
                  }
                }
              }
              JOINT lIndex1
              {
                OFFSET 7.75947 0.938293 5.60832
                CHANNELS 3 Zrotation Xrotation Yrotation
                JOINT lIndex2
                {
                  OFFSET 2.54057 -0.884171 1.56538
                  CHANNELS 3 Zrotation Xrotation Yrotation
                  End Site
                  {
                    OFFSET 1.62519 -0.234802 1.16502
                  }
                }
              }
              JOINT lMid1
              {
                OFFSET 8.24714 1.18213 3.41376
                CHANNELS 3 Zrotation Xrotation Yrotation
                JOINT lMid2
                {
                  OFFSET 3.10165 -0.590103 1.0647
                  CHANNELS 3 Zrotation Xrotation Yrotation
                  End Site
                  {
                    OFFSET 2.48547 -0.328903 0.83742
                  }
                }
              }
              JOINT lRing1
              {
                OFFSET 8.82822 0.546677 1.51678
                CHANNELS 3 Zrotation Xrotation Yrotation
                JOINT lRing2
                {
                  OFFSET 2.60934 -0.819778 -0.0198488
                  CHANNELS 3 Zrotation Xrotation Yrotation
                  End Site
                  {
                    OFFSET 2.33842 -0.294052 0.168128
                  }
                }
              }
              JOINT lPinky1
              {
                OFFSET 8.27202 -0.0477905 -0.4584
                CHANNELS 3 Zrotation Xrotation Yrotation
                JOINT lPinky2
                {
                  OFFSET 1.82734 -0.647385 -0.700984
                  CHANNELS 3 Zrotation Xrotation Yrotation
                  End Site
                  {
                    OFFSET 1.69225 -0.51767 -0.607171
                  }
                }
              }
            }
          }
        }
      }
    }
  }
  JOINT rButtock
  {
    OFFSET -8.77824 4.35084 1.2192
    CHANNELS 3 Zrotation Xrotation Yrotation
    JOINT rThigh
    {
      OFFSET 0 -1.70687 -2.19456
      CHANNELS 3 Zrotation Xrotation Yrotation
      JOINT rShin
      {
        OFFSET 0 -36.8199 0.73152
        CHANNELS 3 Zrotation Xrotation Yrotation
        JOINT rFoot
        {
          OFFSET 0.73152 -45.1104 -5.12064
          CHANNELS 3 Zrotation Xrotation Yrotation
          End Site
          {
            OFFSET -1.1221 -3.69964 12.103
          }
        }
      }
    }
  }
  JOINT lButtock
  {
    OFFSET 8.77824 4.35084 1.2192
    CHANNELS 3 Zrotation Xrotation Yrotation
    JOINT lThigh
    {
      OFFSET 0 -1.70687 -2.19456
      CHANNELS 3 Zrotation Xrotation Yrotation
      JOINT lShin
      {
        OFFSET 0 -36.8199 0.73152
        CHANNELS 3 Zrotation Xrotation Yrotation
        JOINT lFoot
        {
          OFFSET -0.73152 -45.1104 -5.12064
          CHANNELS 3 Zrotation Xrotation Yrotation
          End Site
          {
            OFFSET 1.1221 -3.69964 12.103
          }
        }
      }
    }
  }
}
MOTION
Frames: 90
Frame Time: 0.03333
0.000 82.251 0.000 -2.791 11.370 0.350 3.962 15.401 4.864 -1.286 -4.668 1.460 -13.253 -10.769 -4.445 14.180 -1.124 -2.573 0.000 0.000 0.000 0.000 0.000 0.000 -0.000 -0.000 0.000 81.684 33.116 -15.019 -28.267 -32.541 71.307 -0.024 -4.435 -0.625 -0.000 0.000 -0.000 -0.000 0.000 -0.000 -0.000 0.000 -0.000 7.731 5.475 0.417 -0.000 0.000 -0.000 2.906 0.965 0.103 -0.000 0.000 -0.000 10.279 0.732 0.026 -0.000 0.000 -0.000 2.222 -0.733 -0.209 -0.000 -0.000 0.000 -76.037 24.607 -1.681 18.328 -54.496 -118.150 0.722 -23.396 3.486 -0.000 0.000 -0.000 -0.000 0.000 -0.000 -0.000 0.000 -0.000 -7.731 5.475 -0.417 -0.000 0.000 -0.000 -2.906 0.965 -0.103 -0.000 0.000 -0.000 -10.279 0.732 -0.026 -0.000 0.000 -0.000 -2.222 -0.733 0.209 -0.000 0.000 -0.000 10.592 -11.639 -0.354 -0.097 31.281 0.861 -1.612 -12.138 -3.516 0.000 0.000 0.000 37.145 -70.517 32.946 174.000 78.251 -174.965 5.626 26.394 -20.354
0.273 84.220 -0.029 -2.099 11.425 1.089 3.588 14.651 3.884 -1.290 -4.762 1.163 -13.715 -10.452 -5.299 16.083 -1.320 -4.098 0.000 0.000 0.000 0.000 0.000 0.000 -0.000 0.000 -0.000 82.248 33.293 -15.972 -28.424 -34.848 75.082 -0.028 -4.784 -0.674 -0.000 -0.000 0.000 -0.000 -0.000 0.000 -0.000 -0.000 0.000 7.731 5.475 0.417 -0.000 -0.000 0.000 2.906 0.965 0.103 -0.000 -0.000 0.000 10.279 0.732 0.026 -0.000 -0.000 0.000 2.222 -0.733 -0.209 -0.000 0.000 -0.000 -78.953 26.071 1.392 23.113 -50.460 -106.003 0.711 -23.223 3.457 -0.000 -0.000 0.000 -0.000 -0.000 0.000 -0.000 -0.000 0.000 -7.731 5.475 -0.417 -0.000 -0.000 0.000 -2.906 0.965 -0.103 -0.000 -0.000 0.000 -10.279 0.732 -0.026 -0.000 -0.000 0.000 -2.222 -0.733 0.209 -0.000 0.000 -0.000 8.994 -12.326 -0.830 -0.117 30.955 0.748 -1.201 -6.506 -2.991 0.000 0.000 0.000 23.171 -65.025 20.945 152.209 87.749 -153.145 6.112 25.648 -20.993
0.637 86.486 -0.100 -1.588 9.526 1.900 3.000 13.741 3.877 -1.383 -4.469 1.136 -13.863 -10.452 -5.792 17.053 -1.301 -5.009 0.000 0.000 0.000 0.000 0.000 0.000 0.000 -0.000 -0.000 82.697 33.597 -17.036 -28.397 -37.062 78.805 -0.028 -4.772 -0.672 0.000 -0.000 0.000 0.000 -0.000 0.000 0.000 -0.000 0.000 7.731 5.475 0.417 0.000 -0.000 0.000 2.906 0.965 0.103 0.000 -0.000 0.000 10.279 0.732 0.026 0.000 -0.000 0.000 2.222 -0.733 -0.209 0.000 -0.000 -0.000 -81.371 26.766 3.644 27.030 -44.170 -91.505 0.734 -23.585 3.518 0.000 -0.000 0.000 0.000 -0.000 0.000 0.000 -0.000 0.000 -7.731 5.475 -0.417 0.000 -0.000 0.000 -2.906 0.965 -0.103 0.000 -0.000 0.000 -10.279 0.732 -0.026 0.000 -0.000 0.000 -2.222 -0.733 0.209 -0.000 0.000 -0.000 6.087 -15.186 -1.919 -0.194 33.217 0.610 -0.668 3.231 -2.379 0.000 0.000 0.000 14.196 -56.194 13.908 4.217 78.946 -5.133 7.067 24.973 -22.860
1.224 88.112 0.012 -0.468 5.487 2.342 0.771 12.910 4.332 -0.782 -4.203 1.207 -13.330 -10.399 -5.389 16.858 -1.057 -4.499 0.000 0.000 0.000 0.000 0.000 0.000 0.000 -0.000 -0.000 81.868 34.824 -17.329 -28.209 -39.098 82.329 -0.014 -3.382 -0.476 0.000 -0.000 0.000 0.000 -0.000 0.000 0.000 -0.000 0.000 7.731 5.475 0.417 0.000 -0.000 0.000 2.906 0.965 0.103 0.000 -0.000 0.000 10.279 0.732 0.026 0.000 -0.000 0.000 2.222 -0.733 -0.209 0.000 -0.000 -0.000 -83.504 26.945 5.898 28.418 -37.079 -78.720 0.864 -25.432 3.832 0.000 -0.000 0.000 0.000 -0.000 0.000 0.000 -0.000 0.000 -7.731 5.475 -0.417 0.000 -0.000 0.000 -2.906 0.965 -0.103 0.000 -0.000 0.000 -10.279 0.732 -0.026 0.000 -0.000 0.000 -2.222 -0.733 0.209 -0.000 0.000 -0.000 1.811 -20.667 -2.072 -0.345 39.324 0.566 -0.208 13.213 -2.381 0.000 0.000 0.000 7.202 -46.076 9.714 1.366 65.092 -2.142 6.972 23.956 -21.875
1.954 88.496 0.251 1.795 1.886 2.375 -2.661 12.362 3.855 0.083 -4.186 0.978 -12.480 -10.563 -4.748 16.785 -0.055 -3.730 0.000 0.000 0.000 0.000 0.000 0.000 -0.000 -0.000 -0.000 80.424 36.983 -16.339 -27.842 -41.176 86.057 -0.008 -2.550 -0.359 0.000 -0.000 0.000 0.000 -0.000 0.000 0.000 -0.000 0.000 7.731 5.475 0.417 0.000 -0.000 0.000 2.906 0.965 0.103 0.000 -0.000 0.000 10.279 0.732 0.026 0.000 -0.000 0.000 2.222 -0.733 -0.209 -0.000 -0.000 -0.000 -84.595 27.108 8.485 28.045 -30.919 -68.654 0.948 -26.518 4.021 0.000 0.000 0.000 0.000 0.000 0.000 0.000 0.000 0.000 -7.731 5.475 -0.417 0.000 0.000 0.000 -2.906 0.965 -0.103 0.000 0.000 0.000 -10.279 0.732 -0.026 0.000 0.000 0.000 -2.222 -0.733 0.209 -0.000 0.000 -0.000 -3.008 -28.503 -1.937 -0.659 50.439 0.831 -0.083 15.235 -2.658 0.000 0.000 0.000 0.289 -36.766 5.991 0.665 53.150 -1.283 6.737 24.384 -19.070
2.577 87.775 0.472 3.514 -1.227 1.814 -5.236 12.785 2.292 0.890 -4.274 0.446 -11.705 -10.863 -4.178 16.590 1.136 -3.065 0.000 0.000 0.000 0.000 0.000 0.000 -0.000 0.000 0.000 78.330 39.165 -13.814 -27.206 -43.446 90.344 -0.005 -1.929 -0.271 -0.000 -0.000 0.000 -0.000 -0.000 0.000 -0.000 -0.000 0.000 7.731 5.475 0.417 -0.000 -0.000 0.000 2.906 0.965 0.103 -0.000 -0.000 0.000 10.279 0.732 0.026 -0.000 -0.000 0.000 2.222 -0.733 -0.209 -0.000 0.000 0.000 -85.032 28.200 10.410 26.952 -26.211 -61.256 0.925 -26.223 3.969 -0.000 -0.000 -0.000 -0.000 -0.000 -0.000 -0.000 -0.000 -0.000 -7.731 5.475 -0.417 -0.000 -0.000 -0.000 -2.906 0.965 -0.103 -0.000 -0.000 -0.000 -10.279 0.732 -0.026 -0.000 -0.000 -0.000 -2.222 -0.733 0.209 -0.000 0.000 -0.000 -7.329 -36.819 -2.444 -1.471 64.507 1.696 -0.225 12.304 -2.952 0.000 0.000 0.000 -5.519 -28.125 2.555 0.364 44.241 -0.891 5.412 21.559 -16.141
2.908 86.460 0.828 4.241 -3.914 0.351 -6.109 14.080 0.908 1.681 -4.593 -0.002 -10.887 -10.175 -3.705 15.963 1.036 -2.610 0.000 0.000 0.000 0.000 0.000 0.000 -0.000 0.000 -0.000 75.942 40.262 -10.769 -26.240 -45.811 95.121 -0.002 -1.344 -0.189 -0.000 -0.000 0.000 -0.000 -0.000 0.000 -0.000 -0.000 0.000 7.731 5.475 0.417 -0.000 -0.000 0.000 2.906 0.965 0.103 -0.000 -0.000 0.000 10.279 0.732 0.026 -0.000 -0.000 0.000 2.222 -0.733 -0.209 -0.000 0.000 -0.000 -85.932 30.904 12.228 25.953 -23.319 -56.638 0.946 -26.493 4.017 0.000 0.000 -0.000 0.000 0.000 -0.000 0.000 0.000 -0.000 -7.731 5.475 -0.417 0.000 0.000 -0.000 -2.906 0.965 -0.103 0.000 0.000 -0.000 -10.279 0.732 -0.026 0.000 0.000 -0.000 -2.222 -0.733 0.209 -0.000 0.000 -0.000 -9.920 -44.118 -2.566 -3.976 77.545 4.251 -0.250 13.000 -2.758 0.000 0.000 0.000 -8.729 -20.121 1.248 0.189 38.201 -0.738 1.845 9.626 -10.780
2.964 84.451 1.035 4.420 -5.626 -0.501 -7.386 14.733 -0.162 2.649 -4.711 -0.339 -9.496 -9.884 -3.352 15.408 0.632 -2.538 0.000 0.000 0.000 0.000 0.000 0.000 -0.000 -0.000 -0.000 73.666 40.105 -6.975 -25.136 -47.773 99.457 -0.000 -0.336 -0.047 0.000 0.000 -0.000 0.000 0.000 -0.000 0.000 0.000 -0.000 7.731 5.475 0.417 0.000 0.000 -0.000 2.906 0.965 0.103 0.000 0.000 -0.000 10.279 0.732 0.026 0.000 0.000 -0.000 2.222 -0.733 -0.209 -0.000 -0.000 -0.000 -86.329 33.711 13.640 25.193 -21.516 -53.644 1.026 -27.480 4.192 0.000 0.000 0.000 0.000 0.000 0.000 0.000 0.000 0.000 -7.731 5.475 -0.417 0.000 0.000 0.000 -2.906 0.965 -0.103 0.000 0.000 0.000 -10.279 0.732 -0.026 0.000 0.000 0.000 -2.222 -0.733 0.209 -0.000 0.000 -0.000 -12.191 -52.023 -2.616 -42.886 88.443 43.204 -0.211 16.456 -1.812 0.000 0.000 0.000 -10.892 -15.790 1.887 0.082 35.331 -0.786 0.340 -2.475 -3.935
2.932 82.243 0.809 5.767 -5.944 -0.237 -9.767 14.909 -2.443 4.667 -5.008 -0.964 -8.978 -10.356 -3.278 15.714 0.890 -2.595 0.000 0.000 0.000 0.000 0.000 0.000 0.000 0.000 -0.000 72.022 39.217 -3.662 -24.182 -49.160 102.704 -0.002 1.264 0.178 0.000 0.000 0.000 0.000 0.000 0.000 0.000 0.000 0.000 7.731 5.475 0.417 0.000 0.000 0.000 2.906 0.965 0.103 0.000 0.000 0.000 10.279 0.732 0.026 0.000 0.000 0.000 2.222 -0.733 -0.209 0.000 0.000 -0.000 -86.412 35.386 14.212 24.526 -20.114 -51.320 1.005 -27.229 4.147 -0.000 -0.000 0.000 -0.000 -0.000 0.000 -0.000 -0.000 0.000 -7.731 5.475 -0.417 -0.000 -0.000 0.000 -2.906 0.965 -0.103 -0.000 -0.000 0.000 -10.279 0.732 -0.026 -0.000 -0.000 0.000 -2.222 -0.733 0.209 -0.000 0.000 -0.000 -18.414 -59.723 -6.915 -170.972 82.205 171.341 -0.375 19.339 0.185 0.000 0.000 0.000 -12.357 -15.613 2.212 0.052 35.309 -0.910 0.225 -8.901 -2.182
2.694 80.762 0.581 6.170 -4.892 0.358 -10.912 14.886 -4.573 6.311 -4.979 -1.519 -9.280 -10.900 -3.505 16.410 1.135 -2.871 0.000 0.000 0.000 0.000 0.000 0.000 -0.000 0.000 -0.000 72.670 37.734 -3.059 -23.602 -49.882 104.518 -0.011 2.992 0.421 -0.000 0.000 0.000 -0.000 0.000 0.000 -0.000 0.000 0.000 7.731 5.475 0.417 -0.000 0.000 0.000 2.906 0.965 0.103 -0.000 0.000 0.000 10.279 0.732 0.026 -0.000 0.000 0.000 2.222 -0.733 -0.209 -0.000 0.000 -0.000 -86.388 36.821 14.519 24.456 -19.974 -51.104 0.966 -26.748 4.062 -0.000 -0.000 -0.000 -0.000 -0.000 -0.000 -0.000 -0.000 -0.000 -7.731 5.475 -0.417 -0.000 -0.000 -0.000 -2.906 0.965 -0.103 -0.000 -0.000 -0.000 -10.279 0.732 -0.026 -0.000 -0.000 -0.000 -2.222 -0.733 0.209 -0.000 0.000 -0.000 -25.863 -64.176 -13.890 -173.886 77.689 174.288 -0.544 20.063 1.594 0.000 0.000 0.000 -12.074 -16.768 2.204 0.069 36.396 -1.005 -0.731 -12.823 -5.103
2.587 80.622 0.722 6.021 -5.099 0.501 -10.623 14.521 -3.924 6.011 -4.733 -1.331 -9.507 -11.252 -3.920 16.596 1.468 -3.592 0.000 0.000 0.000 0.000 0.000 0.000 -0.000 -0.000 0.000 75.597 35.547 -5.226 -23.963 -49.397 103.391 -0.024 4.383 0.617 -0.000 -0.000 -0.000 -0.000 -0.000 -0.000 -0.000 -0.000 -0.000 7.731 5.475 0.417 -0.000 -0.000 -0.000 2.906 0.965 0.103 -0.000 -0.000 -0.000 10.279 0.732 0.026 -0.000 -0.000 -0.000 2.222 -0.733 -0.209 -0.000 -0.000 0.000 -85.714 38.682 14.731 25.138 -21.397 -53.432 0.978 -26.902 4.089 0.000 0.000 -0.000 0.000 0.000 -0.000 0.000 0.000 -0.000 -7.731 5.475 -0.417 0.000 0.000 -0.000 -2.906 0.965 -0.103 0.000 0.000 -0.000 -10.279 0.732 -0.026 0.000 0.000 -0.000 -2.222 -0.733 0.209 -0.000 0.000 -0.000 -26.732 -64.861 -15.116 -173.775 77.961 174.175 -0.501 19.252 1.267 0.000 0.000 0.000 -11.745 -16.951 2.292 0.069 36.522 -1.036 -0.790 -13.451 -5.134
2.479 81.630 0.967 6.094 -5.996 0.469 -10.052 14.028 -2.152 5.245 -4.531 -0.842 -9.630 -11.216 -3.929 15.337 1.963 -3.598 0.000 0.000 0.000 0.000 0.000 0.000 0.000 -0.000 -0.000 78.021 33.581 -7.594 -25.647 -46.894 97.548 -0.029 4.824 0.680 0.000 -0.000 -0.000 0.000 -0.000 -0.000 0.000 -0.000 -0.000 7.731 5.475 0.417 0.000 -0.000 -0.000 2.906 0.965 0.103 0.000 -0.000 -0.000 10.279 0.732 0.026 0.000 -0.000 -0.000 2.222 -0.733 -0.209 0.000 -0.000 -0.000 -85.535 39.189 15.034 26.002 -23.441 -56.785 0.974 -26.844 4.079 0.000 0.000 0.000 0.000 0.000 0.000 0.000 0.000 0.000 -7.731 5.475 -0.417 0.000 0.000 0.000 -2.906 0.965 -0.103 0.000 0.000 0.000 -10.279 0.732 -0.026 0.000 0.000 0.000 -2.222 -0.733 0.209 -0.000 0.000 -0.000 -22.764 -61.778 -11.938 -170.544 82.604 170.912 -0.302 17.642 -0.879 0.000 0.000 0.000 -11.833 -16.379 1.746 0.055 35.740 -0.994 -0.249 -10.649 -4.009
2.102 83.729 1.144 5.634 -5.319 0.453 -9.447 13.450 -1.321 5.031 -4.134 -0.606 -9.185 -10.964 -3.200 12.974 2.566 -2.405 0.000 0.000 0.000 0.000 0.000 0.000 0.000 -0.000 -0.000 79.010 32.269 -8.532 -27.682 -42.008 87.478 -0.022 4.201 0.591 0.000 -0.000 -0.000 0.000 -0.000 -0.000 0.000 -0.000 -0.000 7.731 5.475 0.417 0.000 -0.000 -0.000 2.906 0.965 0.103 0.000 -0.000 -0.000 10.279 0.732 0.026 0.000 -0.000 -0.000 2.222 -0.733 -0.209 0.000 -0.000 -0.000 -86.325 38.057 15.874 26.885 -25.962 -60.803 1.055 -27.849 4.258 0.000 0.000 0.000 0.000 0.000 0.000 0.000 0.000 0.000 -7.731 5.475 -0.417 0.000 0.000 0.000 -2.906 0.965 -0.103 0.000 0.000 0.000 -10.279 0.732 -0.026 0.000 0.000 0.000 -2.222 -0.733 0.209 -0.000 0.000 -0.000 -18.744 -55.343 -9.530 -40.096 88.358 40.415 -0.126 15.882 -3.450 0.000 0.000 0.000 -10.920 -16.560 1.419 0.066 35.324 -0.892 -0.089 -4.196 -6.709
1.527 86.272 1.289 4.808 -3.047 0.532 -7.946 12.968 -1.382 4.589 -3.906 -0.591 -8.971 -10.525 -2.670 11.512 3.268 -1.549 0.000 0.000 0.000 0.000 0.000 0.000 -0.000 -0.000 0.000 79.737 30.886 -9.157 -28.460 -35.676 76.370 -0.006 2.307 0.324 -0.000 -0.000 0.000 -0.000 -0.000 0.000 -0.000 -0.000 0.000 7.731 5.475 0.417 -0.000 -0.000 0.000 2.906 0.965 0.103 -0.000 -0.000 0.000 10.279 0.732 0.026 -0.000 -0.000 0.000 2.222 -0.733 -0.209 -0.000 -0.000 0.000 -86.580 37.400 16.654 27.654 -28.843 -65.405 1.135 -28.758 4.424 -0.000 -0.000 -0.000 0.000 -0.000 -0.000 -0.000 -0.000 -0.000 -7.731 5.475 -0.417 -0.000 -0.000 -0.000 -2.906 0.965 -0.103 -0.000 -0.000 -0.000 -10.279 0.732 -0.026 -0.000 -0.000 -0.000 -2.222 -0.733 0.209 -0.000 0.000 -0.000 -15.199 -46.731 -8.571 -3.897 77.339 4.158 0.015 14.940 -4.950 0.000 0.000 0.000 -8.544 -18.317 1.296 0.124 36.294 -0.791 1.434 7.135 -10.368
0.585 88.162 1.318 2.629 0.037 0.774 -4.906 12.218 -1.256 3.724 -3.695 -0.475 -9.249 -9.852 -2.538 10.665 3.672 -1.267 0.000 0.000 0.000 0.000 0.000 0.000 0.000 0.000 -0.000 80.152 29.389 -9.781 -27.720 -29.107 65.613 -0.000 -0.222 -0.031 -0.000 0.000 0.000 -0.000 0.000 0.000 -0.000 0.000 0.000 7.731 5.475 0.417 -0.000 0.000 0.000 2.906 0.965 0.103 -0.000 0.000 0.000 10.279 0.732 0.026 -0.000 0.000 0.000 2.222 -0.733 -0.209 0.000 0.000 -0.000 -85.335 37.623 16.453 28.170 -31.833 -70.250 1.053 -27.812 4.251 -0.000 -0.000 -0.000 -0.000 -0.000 -0.000 -0.000 -0.000 -0.000 -7.731 5.475 -0.417 -0.000 -0.000 -0.000 -2.906 0.965 -0.103 -0.000 -0.000 -0.000 -10.279 0.732 -0.026 -0.000 -0.000 -0.000 -2.222 -0.733 0.209 -0.000 0.000 -0.000 -9.942 -37.924 -6.737 -1.519 64.897 1.717 0.154 15.026 -5.287 0.000 0.000 0.000 -4.534 -22.448 1.100 0.256 40.263 -0.779 2.762 16.682 -9.805
-0.494 89.096 1.401 0.348 3.226 0.819 -1.573 11.331 -0.472 3.120 -3.492 -0.150 -9.746 -9.124 -2.570 9.859 3.803 -1.206 0.000 0.000 0.000 0.000 0.000 0.000 0.000 0.000 -0.000 80.089 28.375 -10.570 -25.911 -23.239 56.455 -0.007 -2.474 -0.348 -0.000 -0.000 0.000 -0.000 -0.000 0.000 -0.000 -0.000 0.000 7.731 5.475 0.417 -0.000 -0.000 0.000 2.906 0.965 0.103 -0.000 -0.000 0.000 10.279 0.732 0.026 -0.000 -0.000 0.000 2.222 -0.733 -0.209 0.000 0.000 -0.000 -83.110 38.300 15.457 28.439 -35.674 -76.415 0.997 -27.137 4.131 -0.000 -0.000 -0.000 -0.000 -0.000 -0.000 -0.000 -0.000 -0.000 -7.731 5.475 -0.417 -0.000 -0.000 -0.000 -2.906 0.965 -0.103 -0.000 -0.000 -0.000 -10.279 0.732 -0.026 -0.000 -0.000 -0.000 -2.222 -0.733 0.209 -0.000 0.000 -0.000 -4.069 -29.736 -4.005 -0.768 53.044 0.907 0.451 15.921 -6.026 0.000 0.000 0.000 1.014 -29.097 3.731 0.558 49.429 -0.962 1.215 15.345 -3.942
-1.562 88.969 1.436 -0.922 6.170 0.466 0.060 11.441 0.536 3.243 -3.290 0.213 -10.729 -8.891 -2.855 10.129 3.575 -1.362 0.000 0.000 0.000 0.000 0.000 0.000 -0.000 -0.000 0.000 80.234 27.817 -11.297 -24.143 -19.368 50.131 -0.018 -3.742 -0.527 0.000 -0.000 -0.000 0.000 -0.000 -0.000 0.000 -0.000 -0.000 7.731 5.475 0.417 0.000 -0.000 -0.000 2.906 0.965 0.103 0.000 -0.000 -0.000 10.279 0.732 0.026 0.000 -0.000 -0.000 2.222 -0.733 -0.209 -0.000 -0.000 0.000 -79.856 38.765 13.115 27.998 -40.552 -84.822 0.997 -27.137 4.131 -0.000 -0.000 0.000 -0.000 -0.000 0.000 -0.000 -0.000 0.000 -7.731 5.475 -0.417 -0.000 -0.000 0.000 -2.906 0.965 -0.103 -0.000 -0.000 0.000 -10.279 0.732 -0.026 -0.000 -0.000 0.000 -2.222 -0.733 0.209 -0.000 0.000 -0.000 0.444 -21.778 -1.226 -0.440 42.995 0.587 0.476 14.164 -6.866 0.000 0.000 0.000 7.348 -37.056 8.593 1.244 62.276 -1.592 0.468 11.302 0.360
-2.483 87.740 1.533 -1.291 8.980 -0.275 0.722 12.420 1.111 2.797 -3.319 0.422 -11.634 -8.755 -3.004 11.163 2.624 -1.229 0.000 0.000 0.000 0.000 0.000 0.000 0.000 -0.000 -0.000 81.944 27.244 -12.209 -23.030 -17.381 46.707 -0.016 -3.585 -0.505 0.000 0.000 -0.000 0.000 0.000 -0.000 0.000 0.000 -0.000 7.731 5.475 0.417 0.000 0.000 -0.000 2.906 0.965 0.103 0.000 0.000 -0.000 10.279 0.732 0.026 0.000 0.000 -0.000 2.222 -0.733 -0.209 -0.000 -0.000 -0.000 -75.513 37.500 9.799 26.359 -45.597 -94.626 1.049 -27.763 4.243 0.000 -0.000 0.000 0.000 -0.000 0.000 0.000 -0.000 0.000 -7.731 5.475 -0.417 0.000 -0.000 0.000 -2.906 0.965 -0.103 0.000 -0.000 0.000 -10.279 0.732 -0.026 0.000 -0.000 0.000 -2.222 -0.733 0.209 -0.000 0.000 -0.000 3.409 -14.693 0.786 -0.258 35.670 0.547 -0.317 7.764 -4.477 0.000 0.000 0.000 13.679 -45.481 12.834 3.217 75.524 -3.606 0.582 11.950 -1.939
-3.098 85.670 1.673 -1.856 11.050 -1.343 1.726 13.908 1.792 1.726 -3.765 0.654 -12.253 -8.839 -2.966 11.086 1.643 -0.770 0.000 0.000 0.000 0.000 0.000 0.000 0.000 -0.000 -0.000 83.787 26.500 -13.500 -22.617 -16.711 45.501 -0.020 -4.030 -0.567 0.000 -0.000 -0.000 0.000 -0.000 -0.000 0.000 -0.000 -0.000 7.731 5.475 0.417 0.000 -0.000 -0.000 2.906 0.965 0.103 0.000 -0.000 -0.000 10.279 0.732 0.026 0.000 -0.000 -0.000 2.222 -0.733 -0.209 0.000 -0.000 -0.000 -70.917 34.389 5.189 23.686 -49.784 -104.269 1.204 -29.534 4.567 0.000 -0.000 0.000 0.000 -0.000 0.000 0.000 -0.000 0.000 -7.731 5.475 -0.417 0.000 -0.000 0.000 -2.906 0.965 -0.103 0.000 -0.000 0.000 -10.279 0.732 -0.026 0.000 -0.000 0.000 -2.222 -0.733 0.209 -0.000 0.000 -0.000 5.393 -9.983 1.016 -0.149 31.525 0.631 -0.681 -1.170 -1.737 0.000 0.000 0.000 21.135 -53.595 17.815 22.635 87.367 -23.129 0.984 14.115 -7.652
-3.729 83.421 1.523 -3.165 11.324 -1.958 3.606 15.350 3.351 0.762 -4.300 1.148 -12.463 -9.362 -2.850 9.571 0.991 -0.265 0.000 0.000 0.000 0.000 0.000 0.000 -0.000 0.000 -0.000 84.084 26.054 -14.285 -22.589 -16.667 45.413 -0.039 -5.607 -0.791 0.000 -0.000 0.000 0.000 -0.000 0.000 0.000 -0.000 0.000 7.731 5.475 0.417 0.000 -0.000 0.000 2.906 0.965 0.103 0.000 -0.000 0.000 10.279 0.732 0.026 0.000 -0.000 0.000 2.222 -0.733 -0.209 -0.000 0.000 -0.000 -68.147 30.317 0.120 20.998 -52.520 -111.735 1.194 -29.422 4.546 0.000 -0.000 0.000 0.000 -0.000 0.000 0.000 -0.000 0.000 -7.731 5.475 -0.417 0.000 -0.000 0.000 -2.906 0.965 -0.103 0.000 -0.000 0.000 -10.279 0.732 -0.026 0.000 -0.000 0.000 -2.222 -0.733 0.209 -0.000 0.000 -0.000 7.640 -8.775 -0.188 -0.107 30.650 0.736 -0.751 -8.890 -1.169 0.000 0.000 0.000 33.781 -60.257 27.618 170.565 82.830 -171.202 1.769 17.262 -13.197
-4.361 81.656 1.251 -4.589 10.038 -1.910 4.901 16.076 5.057 -0.038 -4.516 1.651 -12.213 -9.734 -2.778 9.153 0.673 -0.126 0.000 0.000 0.000 0.000 0.000 0.000 -0.000 0.000 0.000 83.890 26.450 -14.544 -22.738 -16.907 45.839 -0.037 -5.522 -0.779 0.000 -0.000 0.000 0.000 -0.000 0.000 0.000 -0.000 0.000 7.731 5.475 0.417 0.000 -0.000 0.000 2.906 0.965 0.103 0.000 -0.000 0.000 10.279 0.732 0.026 0.000 -0.000 0.000 2.222 -0.733 -0.209 -0.000 0.000 0.000 -69.409 26.099 -2.650 19.325 -53.840 -115.831 0.946 -26.523 4.021 -0.000 0.000 -0.000 -0.000 0.000 -0.000 -0.000 0.000 -0.000 -7.731 5.475 -0.417 -0.000 0.000 -0.000 -2.906 0.965 -0.103 -0.000 0.000 -0.000 -10.279 0.732 -0.026 -0.000 0.000 -0.000 -2.222 -0.733 0.209 -0.000 0.000 -0.000 9.635 -9.427 -0.504 -0.106 31.531 0.822 -0.789 -13.172 -1.137 0.000 0.000 0.000 48.433 -63.426 39.999 174.293 77.184 -175.065 2.843 20.955 -15.940
-4.307 81.120 1.186 -3.913 10.531 -1.649 4.153 16.057 4.743 -0.023 -4.422 1.528 -12.007 -10.329 -2.802 10.324 1.241 -0.210 0.000 0.000 0.000 0.000 0.000 0.000 -0.000 0.000 0.000 83.390 28.174 -14.479 -23.163 -17.609 47.065 -0.019 -3.969 -0.559 -0.000 -0.000 0.000 -0.000 -0.000 0.000 -0.000 -0.000 0.000 7.731 5.475 0.417 -0.000 -0.000 0.000 2.906 0.965 0.103 -0.000 -0.000 0.000 10.279 0.732 0.026 -0.000 -0.000 0.000 2.222 -0.733 -0.209 -0.000 0.000 0.000 -73.608 22.839 -2.528 19.112 -53.981 -116.331 0.846 -25.157 3.785 -0.000 0.000 -0.000 -0.000 0.000 -0.000 -0.000 0.000 -0.000 -7.731 5.475 -0.417 -0.000 0.000 -0.000 -2.906 0.965 -0.103 -0.000 0.000 -0.000 -10.279 0.732 -0.026 -0.000 0.000 -0.000 -2.222 -0.733 0.209 -0.000 0.000 -0.000 9.853 -9.883 0.162 -0.110 32.028 0.865 -1.202 -14.892 -2.333 0.000 0.000 0.000 51.166 -64.503 42.573 174.518 76.556 -175.306 3.279 23.553 -14.731
-3.937 81.978 1.076 -3.298 11.377 -0.987 3.002 15.338 3.080 0.316 -4.242 1.017 -12.010 -10.429 -3.065 11.663 1.406 -0.740 0.000 0.000 0.000 0.000 0.000 0.000 -0.000 0.000 -0.000 82.816 30.034 -14.686 -23.915 -18.939 49.353 -0.010 -2.820 -0.397 0.000 -0.000 0.000 0.000 -0.000 0.000 0.000 -0.000 0.000 7.731 5.475 0.417 0.000 -0.000 0.000 2.906 0.965 0.103 0.000 -0.000 0.000 10.279 0.732 0.026 0.000 -0.000 0.000 2.222 -0.733 -0.209 -0.000 0.000 -0.000 -77.893 21.527 -0.753 20.868 -52.606 -112.071 0.954 -26.612 4.037 -0.000 -0.000 0.000 -0.000 -0.000 0.000 -0.000 -0.000 0.000 -7.731 5.475 -0.417 -0.000 -0.000 0.000 -2.906 0.965 -0.103 -0.000 -0.000 0.000 -10.279 0.732 -0.026 -0.000 -0.000 0.000 -2.222 -0.733 0.209 -0.000 0.000 -0.000 8.791 -10.178 0.598 -0.107 31.537 0.837 -1.522 -13.370 -3.544 0.000 0.000 0.000 41.799 -63.972 34.217 172.415 80.900 -173.159 3.183 23.955 -12.994
-3.346 83.862 0.940 -2.686 11.249 -0.234 2.489 14.425 2.301 0.322 -4.172 0.769 -12.240 -9.804 -3.668 12.875 1.193 -1.960 0.000 0.000 0.000 0.000 0.000 0.000 -0.000 0.000 0.000 82.924 30.423 -16.005 -24.971 -21.038 52.809 -0.011 -3.074 -0.432 0.000 -0.000 0.000 0.000 -0.000 0.000 0.000 -0.000 0.000 7.731 5.475 0.417 0.000 -0.000 0.000 2.906 0.965 0.103 0.000 -0.000 0.000 10.279 0.732 0.026 0.000 -0.000 0.000 2.222 -0.733 -0.209 -0.000 0.000 0.000 -81.101 21.694 1.076 24.308 -48.990 -102.317 1.091 -28.256 4.332 -0.000 -0.000 0.000 -0.000 -0.000 0.000 -0.000 -0.000 0.000 -7.731 5.475 -0.417 -0.000 -0.000 0.000 -2.906 0.965 -0.103 -0.000 -0.000 0.000 -10.279 0.732 -0.026 -0.000 -0.000 0.000 -2.222 -0.733 0.209 -0.000 0.000 -0.000 7.356 -10.965 0.794 -0.123 31.150 0.741 -1.224 -8.351 -3.468 0.000 0.000 0.000 29.736 -59.635 22.883 95.792 88.964 -96.584 3.860 23.468 -15.010
-2.567 85.975 0.752 -2.033 9.328 0.740 1.465 13.656 2.615 -0.057 -4.319 0.796 -12.229 -9.630 -4.096 13.675 1.888 -2.945 0.000 0.000 0.000 0.000 0.000 0.000 -0.000 -0.000 0.000 83.264 30.510 -17.564 -25.942 -23.286 56.549 -0.024 -4.415 -0.622 -0.000 0.000 -0.000 -0.000 0.000 -0.000 -0.000 0.000 -0.000 7.731 5.475 0.417 -0.000 0.000 -0.000 2.906 0.965 0.103 -0.000 0.000 -0.000 10.279 0.732 0.026 -0.000 0.000 -0.000 2.222 -0.733 -0.209 -0.000 -0.000 0.000 -82.912 22.142 2.857 27.351 -43.165 -89.652 1.131 -28.717 4.416 -0.000 -0.000 0.000 -0.000 -0.000 0.000 -0.000 -0.000 0.000 -7.731 5.475 -0.417 -0.000 -0.000 0.000 -2.906 0.965 -0.103 -0.000 -0.000 0.000 -10.279 0.732 -0.026 -0.000 -0.000 0.000 -2.222 -0.733 0.209 -0.000 0.000 -0.000 4.777 -13.636 0.621 -0.189 33.141 0.637 -0.723 -0.448 -2.948 0.000 0.000 0.000 19.698 -51.858 14.065 3.758 77.776 -4.595 4.878 22.657 -18.332
-1.476 87.670 0.649 -0.471 6.203 1.258 -0.811 13.124 3.066 0.237 -4.004 0.834 -11.901 -9.854 -3.975 13.418 2.437 -2.869 0.000 0.000 0.000 0.000 0.000 0.000 -0.000 -0.000 0.000 81.897 31.544 -17.662 -26.739 -25.505 60.096 -0.025 -4.478 -0.631 -0.000 0.000 -0.000 -0.000 0.000 -0.000 -0.000 0.000 -0.000 7.731 5.475 0.417 -0.000 0.000 -0.000 2.906 0.965 0.103 -0.000 0.000 -0.000 10.279 0.732 0.026 -0.000 0.000 -0.000 2.222 -0.733 -0.209 -0.000 -0.000 0.000 -83.717 22.830 4.081 28.473 -36.259 -77.205 1.159 -29.031 4.474 -0.000 -0.000 0.000 -0.000 -0.000 0.000 -0.000 -0.000 0.000 -7.731 5.475 -0.417 -0.000 -0.000 0.000 -2.906 0.965 -0.103 -0.000 -0.000 0.000 -10.279 0.732 -0.026 -0.000 -0.000 0.000 -2.222 -0.733 0.209 -0.000 0.000 -0.000 0.775 -18.649 0.055 -0.316 38.178 0.575 -0.209 8.992 -4.082 0.000 0.000 0.000 11.073 -42.714 7.529 1.337 64.698 -2.102 5.101 21.807 -18.471
-0.261 88.167 0.647 1.697 2.787 1.453 -3.802 12.625 2.849 0.859 -3.631 0.673 -11.215 -9.585 -3.309 12.803 2.486 -1.892 0.000 0.000 0.000 0.000 0.000 0.000 -0.000 0.000 -0.000 79.547 33.466 -16.787 -27.475 -28.086 64.208 -0.013 -3.317 -0.467 0.000 -0.000 0.000 0.000 -0.000 0.000 0.000 -0.000 0.000 7.731 5.475 0.417 0.000 -0.000 0.000 2.906 0.965 0.103 0.000 -0.000 0.000 10.279 0.732 0.026 0.000 -0.000 0.000 2.222 -0.733 -0.209 -0.000 0.000 -0.000 -83.596 24.493 5.445 27.862 -29.903 -67.052 1.178 -29.237 4.512 0.000 0.000 0.000 0.000 0.000 0.000 0.000 0.000 0.000 -7.731 5.475 -0.417 0.000 0.000 0.000 -2.906 0.965 -0.103 0.000 0.000 0.000 -10.279 0.732 -0.026 0.000 0.000 0.000 -2.222 -0.733 0.209 -0.000 0.000 -0.000 -4.030 -25.412 -0.981 -0.531 46.603 0.716 0.174 13.655 -4.848 0.000 0.000 0.000 3.692 -34.120 2.955 0.676 53.615 -1.349 4.980 21.474 -16.833
0.885 87.512 0.696 3.676 -0.500 1.403 -6.350 12.328 2.233 1.141 -3.566 0.397 -10.319 -9.377 -2.507 12.360 2.987 -0.783 0.000 0.000 0.000 0.000 0.000 0.000 -0.000 0.000 -0.000 77.247 35.342 -15.067 -28.094 -31.184 69.110 -0.008 -2.574 -0.362 0.000 -0.000 0.000 0.000 -0.000 0.000 0.000 -0.000 0.000 7.731 5.475 0.417 0.000 -0.000 0.000 2.906 0.965 0.103 0.000 -0.000 0.000 10.279 0.732 0.026 0.000 -0.000 0.000 2.222 -0.733 -0.209 -0.000 0.000 -0.000 -83.213 27.316 7.322 26.678 -25.345 -59.883 1.061 -27.917 4.270 0.000 0.000 -0.000 0.000 0.000 -0.000 0.000 0.000 -0.000 -7.731 5.475 -0.417 0.000 0.000 -0.000 -2.906 0.965 -0.103 0.000 0.000 -0.000 -10.279 0.732 -0.026 0.000 0.000 -0.000 -2.222 -0.733 0.209 -0.000 0.000 -0.000 -8.726 -32.844 -2.320 -0.977 57.699 1.215 -0.147 11.653 -4.256 0.000 0.000 0.000 -1.811 -26.373 0.933 0.387 45.327 -0.996 3.691 18.418 -13.635
1.781 86.084 0.915 4.666 -3.852 0.636 -7.404 12.352 1.437 1.599 -3.558 0.118 -9.439 -8.979 -1.754 11.500 3.292 0.255 0.000 0.000 0.000 0.000 0.000 0.000 0.000 -0.000 -0.000 74.355 36.848 -12.485 -28.421 -34.591 74.629 -0.006 -2.259 -0.318 0.000 -0.000 -0.000 0.000 -0.000 -0.000 0.000 -0.000 -0.000 7.731 5.475 0.417 0.000 -0.000 -0.000 2.906 0.965 0.103 0.000 -0.000 -0.000 10.279 0.732 0.026 0.000 -0.000 -0.000 2.222 -0.733 -0.209 0.000 -0.000 -0.000 -83.880 31.280 9.561 25.727 -22.755 -55.724 0.932 -26.316 3.986 0.000 0.000 0.000 0.000 0.000 0.000 0.000 0.000 0.000 -7.731 5.475 -0.417 0.000 0.000 0.000 -2.906 0.965 -0.103 0.000 0.000 0.000 -10.279 0.732 -0.026 0.000 0.000 0.000 -2.222 -0.733 0.209 -0.000 0.000 -0.000 -12.239 -39.911 -3.493 -1.896 68.532 2.198 -0.313 10.696 -4.066 0.000 0.000 0.000 -4.917 -19.713 1.285 0.228 39.790 -0.858 1.167 8.093 -8.861
2.351 84.122 1.003 4.934 -6.164 0.261 -8.184 12.969 0.480 2.433 -3.963 -0.175 -8.413 -8.403 -1.126 10.639 3.105 1.011 0.000 0.000 0.000 0.000 0.000 0.000 -0.000 -0.000 0.000 71.316 37.593 -8.975 -28.363 -37.602 79.734 -0.004 -1.671 -0.235 0.000 -0.000 -0.000 0.000 -0.000 -0.000 0.000 -0.000 -0.000 7.731 5.475 0.417 0.000 -0.000 -0.000 2.906 0.965 0.103 0.000 -0.000 -0.000 10.279 0.732 0.026 0.000 -0.000 -0.000 2.222 -0.733 -0.209 -0.000 -0.000 0.000 -85.158 35.403 11.962 25.149 -21.419 -53.503 0.922 -26.183 3.963 0.000 0.000 0.000 0.000 0.000 0.000 0.000 0.000 0.000 -7.731 5.475 -0.417 0.000 0.000 0.000 -2.906 0.965 -0.103 0.000 0.000 0.000 -10.279 0.732 -0.026 0.000 0.000 0.000 -2.222 -0.733 0.209 -0.000 0.000 -0.000 -15.266 -46.318 -4.696 -4.031 77.775 4.377 -0.286 12.748 -3.167 0.000 0.000 0.000 -6.664 -15.640 3.445 0.135 37.243 -0.896 0.049 -3.307 -4.115
2.699 81.967 0.690 5.882 -6.555 0.035 -9.817 13.859 -1.285 4.126 -4.422 -0.666 -8.005 -8.852 -1.013 10.858 3.020 1.124 0.000 0.000 0.000 0.000 0.000 0.000 -0.000 0.000 -0.000 69.254 36.605 -5.417 -28.079 -39.979 83.884 0.001 -0.078 -0.011 -0.000 0.000 0.000 -0.000 0.000 0.000 -0.000 0.000 0.000 7.731 5.475 0.417 -0.000 0.000 0.000 2.906 0.965 0.103 -0.000 0.000 0.000 10.279 0.732 0.026 -0.000 0.000 0.000 2.222 -0.733 -0.209 -0.000 0.000 -0.000 -85.376 38.508 12.291 24.544 -20.153 -51.358 0.835 -25.033 3.763 -0.000 -0.000 -0.000 0.000 -0.000 -0.000 -0.000 -0.000 -0.000 -7.731 5.475 -0.417 -0.000 -0.000 -0.000 -2.906 0.965 -0.103 -0.000 -0.000 -0.000 -10.279 0.732 -0.026 -0.000 -0.000 -0.000 -2.222 -0.733 0.209 -0.000 0.000 -0.000 -20.289 -52.194 -8.483 -11.743 85.149 12.124 -0.321 14.377 -1.723 0.000 0.000 0.000 -7.960 -15.387 4.713 0.118 37.517 -0.999 0.093 -10.066 -1.712
2.982 80.332 0.421 6.257 -4.752 0.385 -10.172 14.178 -3.079 5.417 -4.349 -1.131 -8.345 -9.403 -1.302 11.560 2.900 0.765 0.000 0.000 0.000 0.000 0.000 0.000 0.000 0.000 -0.000 69.398 34.202 -4.014 -27.718 -41.692 87.020 -0.003 1.595 0.224 -0.000 0.000 0.000 -0.000 0.000 0.000 -0.000 0.000 0.000 7.731 5.475 0.417 -0.000 0.000 0.000 2.906 0.965 0.103 -0.000 0.000 0.000 10.279 0.732 0.026 -0.000 0.000 0.000 2.222 -0.733 -0.209 0.000 0.000 -0.000 -84.658 40.527 11.033 24.041 -19.173 -49.754 0.644 -22.199 3.287 -0.000 -0.000 -0.000 -0.000 -0.000 -0.000 -0.000 -0.000 -0.000 -7.731 5.475 -0.417 -0.000 -0.000 -0.000 -2.906 0.965 -0.103 -0.000 -0.000 -0.000 -10.279 0.732 -0.026 -0.000 -0.000 -0.000 -2.222 -0.733 0.209 -0.000 0.000 -0.000 -25.713 -55.887 -13.852 -64.404 88.832 64.811 -0.391 14.881 -0.502 0.000 0.000 0.000 -8.502 -16.602 3.646 0.140 38.844 -1.092 0.053 -14.478 -1.295
2.941 79.541 0.346 5.274 -5.113 0.759 -9.109 14.145 -2.515 5.205 -4.009 -0.946 -8.589 -9.717 -1.681 11.489 3.068 0.148 0.000 0.000 0.000 0.000 0.000 0.000 -0.000 -0.000 0.000 71.690 31.552 -4.702 -27.472 -42.587 88.711 -0.002 1.396 0.196 -0.000 -0.000 -0.000 -0.000 -0.000 -0.000 -0.000 -0.000 -0.000 7.731 5.475 0.417 -0.000 -0.000 -0.000 2.906 0.965 0.103 -0.000 -0.000 -0.000 10.279 0.732 0.026 -0.000 -0.000 -0.000 2.222 -0.733 -0.209 -0.000 -0.000 0.000 -83.487 41.465 9.650 24.167 -19.413 -50.146 0.551 -20.605 3.029 0.000 0.000 -0.000 0.000 0.000 -0.000 0.000 0.000 -0.000 -7.731 5.475 -0.417 0.000 0.000 -0.000 -2.906 0.965 -0.103 0.000 0.000 -0.000 -10.279 0.732 -0.026 0.000 0.000 -0.000 -2.222 -0.733 0.209 -0.000 0.000 -0.000 -25.533 -57.082 -14.199 -68.602 88.868 69.021 -0.417 14.634 -0.266 0.000 0.000 0.000 -8.513 -16.755 2.623 0.143 39.239 -1.154 0.821 -16.612 1.129
2.796 79.845 0.470 5.417 -6.671 1.058 -8.909 13.555 -0.747 4.982 -3.955 -0.424 -8.762 -9.407 -1.771 10.981 3.382 -0.017 0.000 0.000 0.000 0.000 0.000 0.000 -0.000 0.000 0.000 74.323 30.512 -6.343 -27.519 -42.435 88.415 -0.000 0.074 0.010 -0.000 -0.000 -0.000 -0.000 -0.000 -0.000 -0.000 -0.000 -0.000 7.731 5.475 0.417 -0.000 -0.000 -0.000 2.906 0.965 0.103 -0.000 -0.000 -0.000 10.279 0.732 0.026 -0.000 -0.000 -0.000 2.222 -0.733 -0.209 -0.000 0.000 0.000 -83.143 40.396 9.363 24.745 -20.560 -52.050 0.551 -20.604 3.029 0.000 0.000 0.000 0.000 0.000 0.000 0.000 0.000 0.000 -7.731 5.475 -0.417 0.000 0.000 0.000 -2.906 0.965 -0.103 0.000 0.000 0.000 -10.279 0.732 -0.026 0.000 0.000 0.000 -2.222 -0.733 0.209 -0.000 0.000 -0.000 -21.705 -56.338 -10.882 -14.458 86.005 14.895 -0.462 13.324 0.221 0.000 0.000 0.000 -8.616 -16.620 2.359 0.128 38.640 -1.156 1.536 -15.887 3.267
2.483 81.046 0.580 5.656 -6.797 1.663 -9.266 12.705 0.031 5.218 -3.881 -0.186 -8.873 -8.823 -1.568 10.263 3.700 0.343 0.000 0.000 0.000 0.000 0.000 0.000 0.000 -0.000 0.000 76.224 31.101 -8.146 -27.806 -41.332 86.348 -0.000 0.519 0.073 0.000 -0.000 -0.000 0.000 -0.000 -0.000 0.000 -0.000 -0.000 7.731 5.475 0.417 0.000 -0.000 -0.000 2.906 0.965 0.103 0.000 -0.000 -0.000 10.279 0.732 0.026 0.000 -0.000 -0.000 2.222 -0.733 -0.209 0.000 -0.000 0.000 -84.058 37.446 10.343 25.388 -21.955 -54.360 0.598 -21.420 3.161 0.000 0.000 0.000 0.000 0.000 0.000 0.000 0.000 0.000 -7.731 5.475 -0.417 0.000 0.000 0.000 -2.906 0.965 -0.103 0.000 0.000 0.000 -10.279 0.732 -0.026 0.000 0.000 0.000 -2.222 -0.733 0.209 -0.000 0.000 -0.000 -18.736 -52.741 -8.844 -4.969 79.802 5.412 -0.465 11.099 0.331 0.000 0.000 0.000 -8.674 -16.495 2.132 0.114 37.506 -1.075 1.130 -12.636 2.235
2.135 82.924 0.955 5.527 -5.345 1.781 -8.832 12.116 -0.185 4.910 -3.423 -0.251 -8.747 -8.567 -1.377 9.623 4.013 0.625 0.000 0.000 0.000 0.000 0.000 0.000 0.000 -0.000 -0.000 78.104 31.804 -9.574 -28.154 -39.560 83.104 -0.012 3.292 0.463 0.000 -0.000 -0.000 0.000 -0.000 -0.000 0.000 -0.000 -0.000 7.731 5.475 0.417 0.000 -0.000 -0.000 2.906 0.965 0.103 0.000 -0.000 -0.000 10.279 0.732 0.026 0.000 -0.000 -0.000 2.222 -0.733 -0.209 0.000 -0.000 -0.000 -84.493 34.688 11.332 25.967 -23.351 -56.619 0.695 -22.986 3.418 0.000 0.000 0.000 0.000 0.000 0.000 0.000 0.000 0.000 -7.731 5.475 -0.417 0.000 0.000 0.000 -2.906 0.965 -0.103 0.000 0.000 0.000 -10.279 0.732 -0.026 0.000 0.000 0.000 -2.222 -0.733 0.209 -0.000 0.000 -0.000 -16.270 -46.707 -7.991 -2.267 71.257 2.686 -0.471 8.912 -0.508 0.000 0.000 0.000 -8.013 -16.427 1.815 0.115 36.511 -0.954 0.402 -7.713 -0.885
1.542 84.559 1.130 4.783 -3.265 2.242 -7.008 11.336 -0.894 4.229 -3.028 -0.416 -8.736 -8.373 -1.373 9.049 4.633 0.573 0.000 0.000 0.000 0.000 0.000 0.000 0.000 -0.000 -0.000 79.986 32.170 -11.112 -28.364 -37.611 79.738 -0.027 4.622 0.651 0.000 -0.000 0.000 0.000 -0.000 0.000 0.000 -0.000 0.000 7.731 5.475 0.417 0.000 -0.000 0.000 2.906 0.965 0.103 0.000 -0.000 0.000 10.279 0.732 0.026 0.000 -0.000 0.000 2.222 -0.733 -0.209 0.000 -0.000 -0.000 -83.875 33.371 11.584 26.352 -24.373 -58.290 0.782 -24.278 3.635 -0.000 -0.000 0.000 -0.000 -0.000 0.000 -0.000 -0.000 0.000 -7.731 5.475 -0.417 -0.000 -0.000 0.000 -2.906 0.965 -0.103 -0.000 -0.000 0.000 -10.279 0.732 -0.026 -0.000 -0.000 0.000 -2.222 -0.733 0.209 -0.000 0.000 -0.000 -13.142 -40.087 -7.271 -1.190 61.483 1.568 -0.508 6.824 -1.241 0.000 0.000 0.000 -6.257 -17.555 1.305 0.148 36.633 -0.850 0.170 -2.163 -4.275
0.937 85.534 1.201 4.127 -0.682 2.993 -4.875 10.208 -1.384 3.657 -2.608 -0.499 -9.034 -8.305 -1.588 8.462 5.640 0.214 0.000 0.000 0.000 0.000 0.000 0.000 0.000 0.000 0.000 81.257 32.113 -12.737 -28.432 -36.040 77.071 -0.012 3.212 0.452 -0.000 0.000 0.000 -0.000 0.000 0.000 -0.000 0.000 0.000 7.731 5.475 0.417 -0.000 0.000 0.000 2.906 0.965 0.103 -0.000 0.000 0.000 10.279 0.732 0.026 -0.000 0.000 0.000 2.222 -0.733 -0.209 0.000 0.000 0.000 -82.351 33.136 10.905 26.622 -25.149 -59.521 0.775 -24.181 3.618 -0.000 -0.000 -0.000 -0.000 -0.000 -0.000 -0.000 -0.000 -0.000 -7.731 5.475 -0.417 -0.000 -0.000 -0.000 -2.906 0.965 -0.103 -0.000 -0.000 -0.000 -10.279 0.732 -0.026 -0.000 -0.000 -0.000 -2.222 -0.733 0.209 -0.000 0.000 -0.000 -9.906 -33.891 -6.336 -0.683 51.663 1.009 -0.691 4.427 -4.223 0.000 0.000 0.000 -4.275 -19.770 0.945 0.207 38.007 -0.793 0.376 2.149 -6.519
0.260 85.591 1.275 3.518 1.652 3.628 -3.398 8.844 -1.394 3.379 -2.059 -0.469 -9.748 -7.436 -1.926 8.265 5.627 -0.286 0.000 0.000 0.000 0.000 0.000 0.000 -0.000 0.000 -0.000 81.781 31.545 -14.156 -28.425 -35.029 75.400 -0.007 2.419 0.340 0.000 -0.000 0.000 0.000 -0.000 0.000 0.000 -0.000 0.000 7.731 5.475 0.417 0.000 -0.000 0.000 2.906 0.965 0.103 0.000 -0.000 0.000 10.279 0.732 0.026 0.000 -0.000 0.000 2.222 -0.733 -0.209 -0.000 0.000 -0.000 -80.571 32.924 9.875 26.925 -26.092 -61.032 0.733 -23.563 3.514 0.000 0.000 0.000 0.000 0.000 0.000 0.000 0.000 0.000 -7.731 5.475 -0.417 0.000 0.000 0.000 -2.906 0.965 -0.103 0.000 0.000 0.000 -10.279 0.732 -0.026 0.000 0.000 0.000 -2.222 -0.733 0.209 -0.000 0.000 -0.000 -7.520 -28.380 -6.155 -0.443 43.806 0.760 -1.256 -0.878 -5.780 0.000 0.000 0.000 -2.598 -22.021 1.220 0.279 40.124 -0.774 0.378 2.865 -6.409
-0.482 85.033 1.309 3.151 3.178 4.153 -2.388 8.001 -0.948 3.224 -1.951 -0.316 -10.177 -6.343 -2.286 7.717 5.172 -0.937 0.000 0.000 0.000 0.000 0.000 0.000 -0.000 -0.000 0.000 81.896 30.703 -15.515 -28.416 -34.701 74.854 -0.011 2.914 0.410 0.000 -0.000 -0.000 0.000 -0.000 -0.000 0.000 -0.000 -0.000 7.731 5.475 0.417 0.000 -0.000 -0.000 2.906 0.965 0.103 0.000 -0.000 -0.000 10.279 0.732 0.026 0.000 -0.000 -0.000 2.222 -0.733 -0.209 -0.000 -0.000 0.000 -78.696 32.501 8.716 27.280 -27.321 -62.978 0.700 -23.059 3.430 0.000 0.000 0.000 0.000 0.000 0.000 0.000 0.000 0.000 -7.731 5.475 -0.417 0.000 0.000 0.000 -2.906 0.965 -0.103 0.000 0.000 0.000 -10.279 0.732 -0.026 0.000 0.000 0.000 -2.222 -0.733 0.209 -0.000 0.000 -0.000 -5.364 -24.041 -5.640 -0.321 38.482 0.654 -1.387 -7.326 -3.930 0.000 0.000 0.000 -0.785 -23.623 2.413 0.341 42.126 -0.784 0.259 -1.328 -2.475
-1.179 83.848 1.357 2.359 4.146 4.036 -1.362 8.110 0.127 2.927 -2.442 0.023 -10.745 -5.572 -2.522 7.679 5.021 -1.308 0.000 0.000 0.000 0.000 0.000 0.000 -0.000 -0.000 0.000 81.019 30.263 -15.920 -28.413 -34.627 74.740 -0.004 1.925 0.271 -0.000 0.000 0.000 -0.000 0.000 0.000 -0.000 0.000 0.000 7.731 5.475 0.417 -0.000 0.000 0.000 2.906 0.965 0.103 -0.000 0.000 0.000 10.279 0.732 0.026 -0.000 0.000 0.000 2.222 -0.733 -0.209 -0.000 -0.000 0.000 -77.446 31.318 7.763 27.658 -28.853 -65.399 0.647 -22.225 3.292 0.000 -0.000 -0.000 0.000 -0.000 -0.000 0.000 -0.000 -0.000 -7.731 5.475 -0.417 0.000 -0.000 -0.000 -2.906 0.965 -0.103 0.000 -0.000 -0.000 -10.279 0.732 -0.026 0.000 -0.000 -0.000 -2.222 -0.733 0.209 -0.000 0.000 -0.000 -3.535 -21.375 -5.031 -0.259 34.820 0.577 -1.176 -11.180 -2.489 0.000 0.000 0.000 1.123 -24.471 3.720 0.348 42.243 -0.789 0.948 -7.263 2.140
-1.668 82.782 1.116 1.503 4.409 4.180 -0.071 8.522 1.233 2.622 -3.021 0.374 -11.538 -5.337 -2.521 7.967 5.020 -1.057 0.000 0.000 0.000 0.000 0.000 0.000 -0.000 -0.000 0.000 78.270 30.468 -13.892 -28.382 -33.957 73.632 -0.001 -0.210 -0.029 0.000 -0.000 -0.000 0.000 -0.000 -0.000 0.000 -0.000 -0.000 7.731 5.475 0.417 0.000 -0.000 -0.000 2.906 0.965 0.103 0.000 -0.000 -0.000 10.279 0.732 0.026 0.000 -0.000 -0.000 2.222 -0.733 -0.209 -0.000 -0.000 0.000 -77.296 28.317 6.513 27.879 -29.939 -67.162 0.549 -20.583 3.025 0.000 -0.000 0.000 0.000 -0.000 0.000 0.000 -0.000 0.000 -7.731 5.475 -0.417 0.000 -0.000 0.000 -2.906 0.965 -0.103 0.000 -0.000 0.000 -10.279 0.732 -0.026 0.000 -0.000 0.000 -2.222 -0.733 0.209 -0.000 0.000 -0.000 -1.999 -21.146 -5.298 -0.245 33.803 0.558 -1.138 -13.858 -2.101 0.000 0.000 0.000 2.773 -24.985 4.041 0.297 40.241 -0.752 1.649 -11.548 4.144
-2.150 81.870 0.650 0.425 3.627 4.615 1.137 9.046 1.594 2.475 -3.565 0.516 -11.145 -5.841 -1.908 6.996 5.936 0.093 0.000 0.000 0.000 0.000 0.000 0.000 0.000 0.000 0.000 74.476 30.627 -9.592 -28.244 -32.298 70.887 0.001 0.734 0.103 -0.000 0.000 0.000 -0.000 0.000 0.000 -0.000 0.000 0.000 7.731 5.475 0.417 -0.000 0.000 0.000 2.906 0.965 0.103 -0.000 0.000 0.000 10.279 0.732 0.026 -0.000 0.000 0.000 2.222 -0.733 -0.209 0.000 0.000 0.000 -78.696 23.723 5.750 27.925 -30.185 -67.548 0.436 -18.453 2.688 -0.000 0.000 -0.000 -0.000 0.000 -0.000 -0.000 0.000 -0.000 -7.731 5.475 -0.417 -0.000 0.000 -0.000 -2.906 0.965 -0.103 -0.000 0.000 -0.000 -10.279 0.732 -0.026 -0.000 0.000 -0.000 -2.222 -0.733 0.209 -0.000 0.000 -0.000 -1.005 -23.271 -5.720 -0.281 35.875 0.589 -0.939 -14.611 -1.477 0.000 0.000 0.000 3.964 -25.602 3.589 0.245 38.247 -0.724 2.485 -13.704 6.424
-2.195 81.396 0.229 0.824 3.339 5.243 0.333 9.123 1.260 3.158 -3.645 0.429 -10.065 -6.558 -1.227 5.119 7.425 1.184 0.000 0.000 0.000 0.000 0.000 0.000 -0.000 0.000 0.000 71.762 29.687 -5.672 -28.025 -30.775 68.500 -0.019 3.984 0.561 -0.000 -0.000 0.000 -0.000 -0.000 0.000 -0.000 -0.000 0.000 7.731 5.475 0.417 -0.000 -0.000 0.000 2.906 0.965 0.103 -0.000 -0.000 0.000 10.279 0.732 0.026 -0.000 -0.000 0.000 2.222 -0.733 -0.209 -0.000 0.000 0.000 -80.897 20.101 5.994 27.872 -29.898 -67.087 0.417 -18.052 2.625 0.000 0.000 -0.000 0.000 0.000 -0.000 0.000 0.000 -0.000 -7.731 5.475 -0.417 0.000 0.000 -0.000 -2.906 0.965 -0.103 0.000 0.000 -0.000 -10.279 0.732 -0.026 0.000 0.000 -0.000 -2.222 -0.733 0.209 -0.000 0.000 -0.000 -2.013 -25.479 -6.723 -0.324 38.227 0.622 -0.500 -14.395 -0.252 0.000 0.000 0.000 3.500 -26.226 3.745 0.230 37.815 -0.728 2.906 -14.010 7.669
-2.213 81.423 0.068 1.928 4.366 5.346 -1.319 9.073 0.487 4.144 -3.392 0.195 -9.383 -7.038 -1.029 3.783 8.582 1.435 0.000 0.000 0.000 0.000 0.000 0.000 0.000 -0.000 -0.000 71.113 27.676 -3.670 -27.957 -30.366 67.841 -0.027 4.706 0.663 0.000 -0.000 0.000 0.000 -0.000 0.000 0.000 -0.000 0.000 7.731 5.475 0.417 0.000 -0.000 0.000 2.906 0.965 0.103 0.000 -0.000 0.000 10.279 0.732 0.026 0.000 -0.000 0.000 2.222 -0.733 -0.209 0.000 -0.000 -0.000 -81.752 20.020 5.910 27.752 -29.296 -66.125 0.481 -19.307 2.822 0.000 0.000 0.000 0.000 0.000 0.000 0.000 0.000 0.000 -7.731 5.475 -0.417 0.000 0.000 0.000 -2.906 0.965 -0.103 0.000 0.000 0.000 -10.279 0.732 -0.026 0.000 0.000 0.000 -2.222 -0.733 0.209 -0.000 0.000 -0.000 -3.142 -25.784 -6.971 -0.331 38.668 0.639 -0.608 -15.337 -0.555 0.000 0.000 0.000 2.008 -26.347 2.868 0.226 37.554 -0.712 2.680 -13.583 7.133
-2.270 81.593 0.065 1.829 5.525 5.634 -1.510 8.690 -0.037 4.332 -3.158 0.039 -9.378 -6.573 -1.141 3.837 9.023 1.122 0.000 0.000 0.000 0.000 0.000 0.000 0.000 -0.000 -0.000 71.829 25.551 -3.125 -27.960 -30.379 67.857 -0.015 3.481 0.490 0.000 -0.000 -0.000 0.000 -0.000 -0.000 0.000 -0.000 -0.000 7.731 5.475 0.417 0.000 -0.000 -0.000 2.906 0.965 0.103 0.000 -0.000 -0.000 10.279 0.732 0.026 0.000 -0.000 -0.000 2.222 -0.733 -0.209 0.000 -0.000 -0.000 -81.167 22.656 5.476 27.575 -28.495 -64.846 0.428 -18.294 2.663 0.000 0.000 0.000 0.000 0.000 0.000 0.000 0.000 0.000 -7.731 5.475 -0.417 0.000 0.000 0.000 -2.906 0.965 -0.103 0.000 0.000 0.000 -10.279 0.732 -0.026 0.000 0.000 0.000 -2.222 -0.733 0.209 -0.000 0.000 -0.000 -2.920 -25.396 -6.305 -0.317 37.986 0.638 -1.077 -16.039 -1.785 0.000 0.000 0.000 1.114 -26.376 0.584 0.210 36.690 -0.679 2.549 -13.436 6.809
-2.083 81.884 0.202 1.938 6.055 6.124 -1.057 7.643 0.113 3.810 -2.623 0.061 -9.577 -5.822 -1.365 4.451 9.398 0.579 0.000 0.000 0.000 0.000 0.000 0.000 -0.000 0.000 0.000 73.117 23.852 -3.297 -27.925 -30.183 67.546 -0.012 3.121 0.439 -0.000 0.000 0.000 -0.000 0.000 0.000 -0.000 0.000 0.000 7.731 5.475 0.417 -0.000 0.000 0.000 2.906 0.965 0.103 -0.000 0.000 0.000 10.279 0.732 0.026 -0.000 0.000 0.000 2.222 -0.733 -0.209 -0.000 0.000 0.000 -80.295 25.503 5.464 27.408 -27.811 -63.766 0.273 -14.748 2.120 0.000 0.000 -0.000 0.000 0.000 -0.000 0.000 0.000 -0.000 -7.731 5.475 -0.417 0.000 0.000 -0.000 -2.906 0.965 -0.103 0.000 0.000 -0.000 -10.279 0.732 -0.026 0.000 0.000 -0.000 -2.222 -0.733 0.209 -0.000 0.000 -0.000 -2.540 -25.011 -5.796 -0.299 37.004 0.622 -1.268 -16.034 -2.284 0.000 0.000 0.000 0.778 -26.161 -0.691 0.194 35.866 -0.658 2.467 -14.178 6.334
-1.886 82.018 0.428 1.817 5.565 6.383 -0.549 6.788 0.506 3.180 -2.438 0.161 -9.637 -5.525 -1.364 4.619 10.464 0.508 0.000 0.000 0.000 0.000 0.000 0.000 -0.000 0.000 0.000 74.037 23.109 -3.622 -27.806 -29.560 66.550 -0.015 3.551 0.500 -0.000 0.000 0.000 -0.000 0.000 0.000 -0.000 0.000 0.000 7.731 5.475 0.417 -0.000 0.000 0.000 2.906 0.965 0.103 -0.000 0.000 0.000 10.279 0.732 0.026 -0.000 0.000 0.000 2.222 -0.733 -0.209 -0.000 0.000 0.000 -80.378 26.991 6.316 27.305 -27.415 -63.136 0.190 -12.311 1.758 -0.000 -0.000 -0.000 -0.000 -0.000 -0.000 -0.000 -0.000 -0.000 -7.731 5.475 -0.417 -0.000 -0.000 -0.000 -2.906 0.965 -0.103 -0.000 -0.000 -0.000 -10.279 0.732 -0.026 -0.000 -0.000 -0.000 -2.222 -0.733 0.209 -0.000 0.000 -0.000 -2.297 -24.757 -5.467 -0.288 36.295 0.605 -1.168 -15.779 -2.030 0.000 0.000 0.000 0.866 -25.673 -0.588 0.179 35.174 -0.652 2.562 -15.620 6.209
-1.785 82.037 0.543 1.336 4.739 6.761 -0.266 6.232 0.809 2.853 -2.505 0.248 -9.567 -5.468 -1.166 4.153 11.412 0.873 0.000 0.000 0.000 0.000 0.000 0.000 0.000 -0.000 -0.000 74.094 23.332 -3.430 -27.559 -28.430 64.759 -0.019 3.968 0.559 0.000 -0.000 0.000 0.000 -0.000 0.000 0.000 -0.000 0.000 7.731 5.475 0.417 0.000 -0.000 0.000 2.906 0.965 0.103 0.000 -0.000 0.000 10.279 0.732 0.026 0.000 -0.000 0.000 2.222 -0.733 -0.209 0.000 -0.000 -0.000 -81.169 26.719 7.163 27.195 -27.014 -62.507 0.161 -11.372 1.620 0.000 0.000 0.000 0.000 0.000 0.000 0.000 0.000 0.000 -7.731 5.475 -0.417 0.000 0.000 0.000 -2.906 0.965 -0.103 0.000 0.000 0.000 -10.279 0.732 -0.026 0.000 0.000 0.000 -2.222 -0.733 0.209 -0.000 0.000 -0.000 -2.082 -24.985 -5.074 -0.283 35.946 0.595 -1.053 -15.399 -1.744 0.000 0.000 0.000 1.247 -25.570 0.229 0.172 34.894 -0.659 2.699 -16.922 6.246
-1.572 82.021 0.601 1.561 4.254 7.102 -0.646 6.072 0.983 2.847 -2.527 0.293 -9.445 -5.481 -1.048 3.615 11.822 1.106 0.000 0.000 0.000 0.000 0.000 0.000 0.000 0.000 0.000 73.594 23.621 -2.682 -27.113 -26.720 62.031 -0.028 4.751 0.669 -0.000 0.000 0.000 -0.000 0.000 0.000 -0.000 0.000 0.000 7.731 5.475 0.417 -0.000 0.000 0.000 2.906 0.965 0.103 -0.000 0.000 0.000 10.279 0.732 0.026 -0.000 0.000 0.000 2.222 -0.733 -0.209 0.000 0.000 0.000 -81.708 25.269 7.083 26.916 -26.059 -60.979 0.131 -10.261 1.458 -0.000 -0.000 -0.000 -0.000 -0.000 -0.000 -0.000 -0.000 -0.000 -7.731 5.475 -0.417 -0.000 -0.000 -0.000 -2.906 0.965 -0.103 -0.000 -0.000 -0.000 -10.279 0.732 -0.026 -0.000 -0.000 -0.000 -2.222 -0.733 0.209 -0.000 0.000 -0.000 -2.260 -25.334 -4.705 -0.285 36.024 0.592 -0.945 -15.314 -1.462 0.000 0.000 0.000 1.065 -25.661 0.113 0.166 34.614 -0.650 2.539 -16.700 5.879
-1.291 81.998 0.770 1.852 3.793 7.276 -1.432 6.078 1.243 2.918 -2.458 0.355 -9.542 -5.437 -1.091 3.438 11.986 1.063 0.000 0.000 0.000 0.000 0.000 0.000 0.000 -0.000 -0.000 73.072 23.197 -1.904 -26.333 -24.320 58.172 -0.053 6.614 0.934 -0.000 0.000 -0.000 -0.000 0.000 -0.000 -0.000 0.000 -0.000 7.731 5.475 0.417 -0.000 0.000 -0.000 2.906 0.965 0.103 -0.000 0.000 -0.000 10.279 0.732 0.026 -0.000 0.000 -0.000 2.222 -0.733 -0.209 0.000 -0.000 -0.000 -81.885 23.829 6.211 26.330 -24.309 -58.192 0.116 -9.650 1.369 -0.000 -0.000 -0.000 -0.000 -0.000 -0.000 -0.000 -0.000 -0.000 -7.731 5.475 -0.417 -0.000 -0.000 -0.000 -2.906 0.965 -0.103 -0.000 -0.000 -0.000 -10.279 0.732 -0.026 -0.000 -0.000 -0.000 -2.222 -0.733 0.209 -0.000 0.000 -0.000 -2.804 -25.646 -4.424 -0.292 36.362 0.597 -0.873 -15.313 -1.273 0.000 0.000 0.000 0.310 -25.565 -0.578 0.159 34.222 -0.632 2.227 -16.026 5.178
-0.970 81.998 1.033 2.012 3.361 7.293 -1.791 6.103 1.667 2.798 -2.256 0.462 -9.691 -5.289 -1.189 3.256 12.202 0.918 0.000 0.000 0.000 0.000 0.000 0.000 0.000 -0.000 -0.000 73.051 22.003 -1.683 -25.208 -21.547 53.715 -0.100 8.977 1.272 0.000 -0.000 -0.000 0.000 -0.000 -0.000 0.000 -0.000 -0.000 7.731 5.475 0.417 0.000 -0.000 -0.000 2.906 0.965 0.103 0.000 -0.000 -0.000 10.279 0.732 0.026 0.000 -0.000 -0.000 2.222 -0.733 -0.209 0.000 -0.000 -0.000 -81.539 22.437 4.852 25.309 -21.775 -54.044 0.104 -9.152 1.297 -0.000 0.000 0.000 -0.000 0.000 0.000 -0.000 0.000 0.000 -7.731 5.475 -0.417 -0.000 0.000 0.000 -2.906 0.965 -0.103 -0.000 0.000 0.000 -10.279 0.732 -0.026 -0.000 0.000 0.000 -2.222 -0.733 0.209 -0.000 0.000 -0.000 -3.076 -25.611 -4.223 -0.293 36.449 0.596 -0.813 -15.097 -1.121 0.000 0.000 0.000 -0.110 -25.200 -0.748 0.155 33.999 -0.626 2.169 -15.459 5.148
-0.725 82.038 1.252 1.808 3.512 7.453 -1.672 5.980 1.722 2.682 -2.115 0.473 -9.756 -5.214 -1.198 2.978 12.796 0.930 0.000 0.000 0.000 0.000 0.000 0.000 0.000 0.000 0.000 73.110 20.511 -1.579 -23.657 -18.471 48.527 -0.119 9.787 1.389 -0.000 0.000 0.000 -0.000 0.000 0.000 -0.000 0.000 0.000 7.731 5.475 0.417 -0.000 0.000 0.000 2.906 0.965 0.103 -0.000 0.000 0.000 10.279 0.732 0.026 -0.000 0.000 0.000 2.222 -0.733 -0.209 0.000 0.000 0.000 -80.821 20.699 3.240 23.680 -18.516 -48.583 0.083 -8.150 1.153 -0.000 0.000 -0.000 -0.000 0.000 -0.000 -0.000 0.000 -0.000 -7.731 5.475 -0.417 -0.000 0.000 -0.000 -2.906 0.965 -0.103 -0.000 0.000 -0.000 -10.279 0.732 -0.026 -0.000 0.000 -0.000 -2.222 -0.733 0.209 -0.000 0.000 -0.000 -2.769 -25.391 -3.641 -0.289 36.204 0.597 -0.976 -15.228 -1.557 0.000 0.000 0.000 -0.039 -25.111 -0.602 0.150 33.896 -0.612 2.110 -13.685 5.424
-0.447 82.166 1.614 1.900 4.141 7.826 -1.480 5.562 1.136 2.684 -2.021 0.308 -9.791 -5.163 -1.118 2.775 13.468 1.104 0.000 0.000 0.000 0.000 0.000 0.000 -0.000 0.000 0.000 72.980 18.544 -1.027 -21.417 -14.914 42.210 -0.133 10.366 1.473 -0.000 0.000 0.000 -0.000 0.000 0.000 -0.000 0.000 0.000 7.731 5.475 0.417 -0.000 0.000 0.000 2.906 0.965 0.103 -0.000 0.000 0.000 10.279 0.732 0.026 -0.000 0.000 0.000 2.222 -0.733 -0.209 -0.000 0.000 0.000 -79.954 19.019 1.994 21.569 -15.122 -42.646 0.050 -6.422 0.906 0.000 0.000 -0.000 0.000 0.000 -0.000 0.000 0.000 -0.000 -7.731 5.475 -0.417 0.000 0.000 -0.000 -2.906 0.965 -0.103 0.000 0.000 -0.000 -10.279 0.732 -0.026 0.000 0.000 -0.000 -2.222 -0.733 0.209 -0.000 0.000 -0.000 -2.409 -25.043 -3.167 -0.279 35.701 0.598 -1.325 -15.585 -2.469 0.000 0.000 0.000 -0.019 -25.366 -0.575 0.154 33.911 -0.594 1.913 -12.019 5.219
-0.250 82.262 2.009 1.425 5.240 7.911 -1.403 4.952 0.294 2.717 -1.997 0.070 -9.771 -4.972 -1.011 2.565 13.827 1.294 0.000 0.000 0.000 0.000 0.000 0.000 -0.000 -0.000 0.000 73.002 16.256 -0.791 -18.662 -11.418 35.524 -0.162 11.290 1.608 -0.000 0.000 -0.000 -0.000 0.000 -0.000 -0.000 0.000 -0.000 7.731 5.475 0.417 -0.000 0.000 -0.000 2.906 0.965 0.103 -0.000 0.000 -0.000 10.279 0.732 0.026 -0.000 0.000 -0.000 2.222 -0.733 -0.209 -0.000 -0.000 0.000 -79.178 16.972 1.275 19.046 -11.862 -36.399 0.017 -3.595 0.506 0.000 0.000 0.000 0.000 0.000 0.000 0.000 0.000 0.000 -7.731 5.475 -0.417 0.000 0.000 0.000 -2.906 0.965 -0.103 0.000 0.000 0.000 -10.279 0.732 -0.026 0.000 0.000 0.000 -2.222 -0.733 0.209 -0.000 0.000 -0.000 -2.416 -24.612 -3.278 -0.268 35.091 0.594 -1.538 -15.954 -2.998 0.000 0.000 0.000 -0.342 -25.537 -0.954 0.161 33.898 -0.583 1.841 -11.514 5.097
0.043 82.371 2.427 1.456 5.720 8.219 -1.585 4.413 -0.196 2.774 -1.878 -0.073 -9.727 -5.010 -0.982 2.302 14.032 1.371 0.000 0.000 0.000 0.000 0.000 0.000 -0.000 0.000 -0.000 73.156 12.275 -0.885 -15.707 -8.426 29.046 -0.266 14.722 2.114 -0.000 0.000 -0.000 -0.000 0.000 -0.000 -0.000 0.000 -0.000 7.731 5.475 0.417 -0.000 0.000 -0.000 2.906 0.965 0.103 -0.000 0.000 -0.000 10.279 0.732 0.026 -0.000 0.000 -0.000 2.222 -0.733 -0.209 -0.000 0.000 -0.000 -78.447 14.033 0.698 16.121 -8.806 -29.921 -0.002 0.461 -0.065 0.000 0.000 0.000 0.000 0.000 0.000 0.000 0.000 0.000 -7.731 5.475 -0.417 0.000 0.000 0.000 -2.906 0.965 -0.103 0.000 0.000 0.000 -10.279 0.732 -0.026 0.000 0.000 0.000 -2.222 -0.733 0.209 -0.000 0.000 -0.000 -2.539 -24.331 -3.259 -0.261 34.689 0.593 -1.701 -16.254 -3.391 0.000 0.000 0.000 -0.745 -25.480 -1.408 0.158 33.710 -0.577 1.878 -11.486 5.247
0.332 82.376 2.795 1.463 5.871 8.454 -1.808 4.117 -0.242 2.858 -1.754 -0.091 -9.773 -5.330 -1.019 2.092 14.484 1.388 0.000 0.000 0.000 0.000 0.000 0.000 -0.000 0.000 -0.000 73.408 7.105 -1.488 -13.126 -6.264 23.828 -0.505 19.735 2.891 0.000 0.000 -0.000 0.000 0.000 -0.000 0.000 0.000 -0.000 7.731 5.475 0.417 0.000 0.000 -0.000 2.906 0.965 0.103 0.000 0.000 -0.000 10.279 0.732 0.026 0.000 0.000 -0.000 2.222 -0.733 -0.209 -0.000 0.000 -0.000 -77.713 10.294 0.533 13.290 -6.395 -24.143 0.036 5.450 -0.768 0.000 0.000 0.000 0.000 0.000 0.000 0.000 0.000 0.000 -7.731 5.475 -0.417 0.000 0.000 0.000 -2.906 0.965 -0.103 0.000 0.000 0.000 -10.279 0.732 -0.026 0.000 0.000 0.000 -2.222 -0.733 0.209 -0.000 0.000 -0.000 -2.600 -24.217 -3.189 -0.259 34.597 0.594 -1.753 -16.426 -3.497 0.000 0.000 0.000 -0.784 -25.306 -1.262 0.156 33.532 -0.573 1.851 -11.762 5.068
0.550 82.343 3.118 1.294 5.575 8.741 -1.808 4.015 -0.184 2.859 -1.862 -0.071 -9.885 -5.431 -0.984 2.048 14.928 1.514 0.000 0.000 0.000 0.000 0.000 0.000 -0.000 0.000 -0.000 73.655 2.328 -2.915 -11.424 -5.051 20.506 -0.730 23.549 3.511 0.000 -0.000 -0.000 0.000 -0.000 -0.000 0.000 -0.000 -0.000 7.731 5.475 0.417 0.000 -0.000 -0.000 2.906 0.965 0.103 0.000 -0.000 -0.000 10.279 0.732 0.026 0.000 -0.000 -0.000 2.222 -0.733 -0.209 -0.000 0.000 -0.000 -77.154 5.769 1.052 11.094 -4.831 -19.876 0.125 10.093 -1.433 0.000 0.000 0.000 0.000 0.000 0.000 0.000 0.000 0.000 -7.731 5.475 -0.417 0.000 0.000 0.000 -2.906 0.965 -0.103 0.000 0.000 0.000 -10.279 0.732 -0.026 0.000 0.000 0.000 -2.222 -0.733 0.209 -0.000 0.000 -0.000 -2.618 -24.281 -3.386 -0.260 34.662 0.595 -1.700 -16.527 -3.348 0.000 0.000 0.000 -0.585 -25.311 -0.812 0.156 33.572 -0.576 1.835 -12.154 4.895
0.897 82.266 3.333 1.425 5.312 9.067 -1.865 4.279 -0.170 2.846 -2.005 -0.064 -9.905 -5.548 -0.863 1.886 15.297 1.795 0.000 0.000 0.000 0.000 0.000 0.000 -0.000 0.000 0.000 73.763 -0.960 -4.340 -10.588 -4.504 18.914 -0.897 25.831 3.902 0.000 0.000 -0.000 0.000 0.000 -0.000 0.000 0.000 -0.000 7.731 5.475 0.417 0.000 0.000 -0.000 2.906 0.965 0.103 0.000 0.000 -0.000 10.279 0.732 0.026 0.000 0.000 -0.000 2.222 -0.733 -0.209 -0.000 0.000 0.000 -76.838 1.260 2.033 9.887 -4.070 -17.596 0.215 13.043 -1.866 -0.000 0.000 0.000 -0.000 0.000 0.000 -0.000 0.000 0.000 -7.731 5.475 -0.417 -0.000 0.000 0.000 -2.906 0.965 -0.103 -0.000 0.000 0.000 -10.279 0.732 -0.026 -0.000 0.000 0.000 -2.222 -0.733 0.209 -0.000 0.000 -0.000 -2.950 -24.557 -4.036 -0.265 34.974 0.597 -1.595 -16.370 -3.102 0.000 0.000 0.000 -0.654 -25.475 -0.609 0.160 33.899 -0.588 1.906 -12.384 5.074
1.271 82.164 3.459 1.741 5.072 9.294 -2.321 4.584 -0.242 2.975 -1.955 -0.088 -9.701 -5.587 -0.687 1.361 15.325 2.140 0.000 0.000 0.000 0.000 0.000 0.000 -0.000 0.000 -0.000 73.943 -1.224 -5.447 -10.683 -4.566 19.090 -0.820 24.827 3.728 0.000 0.000 -0.000 0.000 0.000 -0.000 0.000 0.000 -0.000 7.731 5.475 0.417 0.000 0.000 -0.000 2.906 0.965 0.103 0.000 0.000 -0.000 10.279 0.732 0.026 0.000 0.000 -0.000 2.222 -0.733 -0.209 -0.000 0.000 -0.000 -76.883 -1.291 3.303 9.799 -4.019 -17.426 0.197 12.547 -1.792 0.000 0.000 0.000 0.000 0.000 0.000 0.000 0.000 0.000 -7.731 5.475 -0.417 0.000 0.000 0.000 -2.906 0.965 -0.103 0.000 0.000 0.000 -10.279 0.732 -0.026 0.000 0.000 0.000 -2.222 -0.733 0.209 -0.000 0.000 -0.000 -3.902 -25.265 -5.276 -0.279 35.801 0.608 -1.406 -16.387 -2.613 0.000 0.000 0.000 -0.899 -26.015 0.124 0.172 34.586 -0.608 1.864 -12.572 4.852
1.542 81.919 3.529 1.796 4.692 9.563 -2.872 5.239 -0.273 3.083 -1.970 -0.100 -9.633 -5.961 -0.559 1.315 15.992 2.424 0.000 0.000 0.000 0.000 0.000 0.000 0.000 0.000 -0.000 74.487 -0.253 -6.249 -11.459 -5.078 20.567 -0.662 22.475 3.333 0.000 -0.000 -0.000 0.000 -0.000 -0.000 0.000 -0.000 -0.000 7.731 5.475 0.417 0.000 -0.000 -0.000 2.906 0.965 0.103 0.000 -0.000 -0.000 10.279 0.732 0.026 0.000 -0.000 -0.000 2.222 -0.733 -0.209 0.000 0.000 -0.000 -77.049 -1.326 4.497 10.480 -4.439 -18.705 0.103 9.218 -1.307 0.000 0.000 0.000 0.000 0.000 0.000 0.000 0.000 0.000 -7.731 5.475 -0.417 0.000 0.000 0.000 -2.906 0.965 -0.103 0.000 0.000 0.000 -10.279 0.732 -0.026 0.000 0.000 0.000 -2.222 -0.733 0.209 -0.000 0.000 -0.000 -4.903 -26.339 -6.450 -0.300 37.121 0.635 -1.337 -16.582 -2.408 0.000 0.000 0.000 -0.875 -26.957 1.576 0.195 35.820 -0.641 1.698 -12.942 4.149
1.791 81.559 3.437 1.901 4.215 9.725 -3.220 6.404 -0.457 3.148 -2.394 -0.146 -9.765 -6.287 -0.444 1.646 16.975 2.695 0.000 0.000 0.000 0.000 0.000 0.000 0.000 0.000 -0.000 75.141 1.131 -6.899 -12.557 -5.848 22.692 -0.518 20.019 2.935 -0.000 -0.000 0.000 -0.000 -0.000 0.000 -0.000 -0.000 0.000 7.731 5.475 0.417 -0.000 -0.000 0.000 2.906 0.965 0.103 -0.000 -0.000 0.000 10.279 0.732 0.026 -0.000 -0.000 0.000 2.222 -0.733 -0.209 0.000 0.000 -0.000 -77.272 0.046 5.509 11.520 -5.120 -20.682 0.036 5.486 -0.773 -0.000 0.000 -0.000 -0.000 0.000 -0.000 -0.000 0.000 -0.000 -7.731 5.475 -0.417 -0.000 0.000 -0.000 -2.906 0.965 -0.103 -0.000 0.000 -0.000 -10.279 0.732 -0.026 -0.000 0.000 -0.000 -2.222 -0.733 0.209 -0.000 0.000 -0.000 -5.747 -27.738 -7.488 -0.331 38.877 0.670 -1.223 -16.661 -2.121 0.000 0.000 0.000 -0.643 -28.275 2.913 0.229 37.525 -0.684 1.442 -13.317 3.184
2.008 81.082 3.083 1.943 4.416 10.147 -3.360 7.604 -0.705 3.231 -2.849 -0.207 -10.011 -6.004 -0.424 1.767 17.026 2.759 0.000 0.000 0.000 0.000 0.000 0.000 -0.000 0.000 0.000 75.619 2.847 -7.146 -13.628 -6.659 24.808 -0.416 18.020 2.620 -0.000 -0.000 0.000 -0.000 -0.000 0.000 -0.000 -0.000 0.000 7.731 5.475 0.417 -0.000 -0.000 0.000 2.906 0.965 0.103 -0.000 -0.000 0.000 10.279 0.732 0.026 -0.000 -0.000 0.000 2.222 -0.733 -0.209 -0.000 0.000 0.000 -77.515 1.402 5.976 12.467 -5.780 -22.519 0.018 3.785 -0.533 -0.000 -0.000 -0.000 -0.000 -0.000 -0.000 -0.000 -0.000 -0.000 -7.731 5.475 -0.417 -0.000 -0.000 -0.000 -2.906 0.965 -0.103 -0.000 -0.000 -0.000 -10.279 0.732 -0.026 -0.000 -0.000 -0.000 -2.222 -0.733 0.209 -0.000 0.000 -0.000 -6.540 -29.318 -8.518 -0.373 40.993 0.711 -0.940 -16.882 -1.406 0.000 0.000 0.000 -0.308 -29.920 4.077 0.273 39.591 -0.735 1.134 -13.587 2.121
2.282 80.531 2.869 2.038 4.369 10.235 -3.146 8.701 -0.733 3.110 -3.120 -0.208 -10.187 -5.781 -0.471 1.762 17.167 2.691 0.000 0.000 0.000 0.000 0.000 0.000 -0.000 -0.000 0.000 75.863 4.332 -6.849 -14.471 -7.341 26.508 -0.348 16.557 2.395 -0.000 0.000 0.000 -0.000 0.000 0.000 -0.000 0.000 0.000 7.731 5.475 0.417 -0.000 0.000 0.000 2.906 0.965 0.103 -0.000 0.000 0.000 10.279 0.732 0.026 -0.000 0.000 0.000 2.222 -0.733 -0.209 -0.000 -0.000 0.000 -77.606 2.488 5.765 13.275 -6.384 -24.108 0.016 3.564 -0.501 -0.000 -0.000 0.000 -0.000 -0.000 0.000 -0.000 -0.000 0.000 -7.731 5.475 -0.417 -0.000 -0.000 0.000 -2.906 0.965 -0.103 -0.000 -0.000 0.000 -10.279 0.732 -0.026 -0.000 -0.000 0.000 -2.222 -0.733 0.209 -0.000 0.000 -0.000 -7.152 -31.145 -9.564 -0.430 43.540 0.772 -0.731 -17.079 -0.875 0.000 0.000 0.000 0.216 -31.753 5.138 0.330 42.086 -0.805 0.936 -14.165 1.430
2.432 79.688 2.624 1.773 4.047 10.347 -2.953 10.140 -0.597 2.989 -3.512 -0.161 -10.243 -5.512 -0.483 1.802 17.111 2.636 0.000 0.000 0.000 0.000 0.000 0.000 -0.000 0.000 0.000 75.721 5.511 -6.036 -15.024 -7.811 27.638 -0.295 15.278 2.200 -0.000 0.000 -0.000 -0.000 0.000 -0.000 -0.000 0.000 -0.000 7.731 5.475 0.417 -0.000 0.000 -0.000 2.906 0.965 0.103 -0.000 0.000 -0.000 10.279 0.732 0.026 -0.000 0.000 -0.000 2.222 -0.733 -0.209 -0.000 0.000 0.000 -77.632 3.965 5.400 14.230 -7.142 -26.015 0.008 2.606 -0.367 -0.000 -0.000 0.000 -0.000 -0.000 0.000 -0.000 -0.000 0.000 -7.731 5.475 -0.417 -0.000 -0.000 0.000 -2.906 0.965 -0.103 -0.000 -0.000 0.000 -10.279 0.732 -0.026 -0.000 -0.000 0.000 -2.222 -0.733 0.209 -0.000 0.000 -0.000 -7.903 -33.345 -11.028 -0.516 46.815 0.866 -0.623 -17.281 -0.610 0.000 0.000 0.000 0.962 -33.627 6.403 0.401 44.914 -0.897 0.817 -15.219 0.996
2.642 78.623 2.239 1.807 3.712 10.508 -3.283 11.691 -0.455 3.049 -4.053 -0.116 -10.333 -5.319 -0.529 2.001 16.878 2.515 0.000 0.000 0.000 0.000 0.000 0.000 0.000 0.000 -0.000 75.288 6.213 -4.881 -15.351 -8.098 28.315 -0.279 14.861 2.137 -0.000 0.000 -0.000 -0.000 0.000 -0.000 -0.000 0.000 -0.000 7.731 5.475 0.417 -0.000 0.000 -0.000 2.906 0.965 0.103 -0.000 0.000 -0.000 10.279 0.732 0.026 -0.000 0.000 -0.000 2.222 -0.733 -0.209 0.000 0.000 -0.000 -77.486 5.424 4.904 15.202 -7.965 -28.007 0.003 1.566 -0.220 0.000 0.000 0.000 0.000 0.000 0.000 0.000 0.000 0.000 -7.731 5.475 -0.417 0.000 0.000 0.000 -2.906 0.965 -0.103 0.000 0.000 0.000 -10.279 0.732 -0.026 0.000 0.000 0.000 -2.222 -0.733 0.209 -0.000 0.000 -0.000 -9.555 -36.116 -13.090 -0.655 51.081 1.006 -0.247 -17.621 0.270 0.000 0.000 0.000 1.631 -35.760 8.065 0.496 48.181 -1.013 0.585 -16.367 0.312
2.793 77.204 1.688 2.207 3.799 10.959 -3.872 12.810 -0.540 3.175 -4.632 -0.136 -10.533 -5.171 -0.587 2.406 16.619 2.392 0.000 0.000 0.000 0.000 0.000 0.000 0.000 0.000 -0.000 74.668 6.805 -3.682 -15.584 -8.306 28.799 -0.278 14.842 2.134 -0.000 0.000 -0.000 -0.000 0.000 -0.000 -0.000 0.000 -0.000 7.731 5.475 0.417 -0.000 0.000 -0.000 2.906 0.965 0.103 -0.000 0.000 -0.000 10.279 0.732 0.026 -0.000 0.000 -0.000 2.222 -0.733 -0.209 0.000 0.000 -0.000 -77.016 6.777 4.234 16.192 -8.868 -30.075 0.002 1.183 -0.166 0.000 0.000 0.000 0.000 0.000 0.000 0.000 0.000 0.000 -7.731 5.475 -0.417 0.000 0.000 0.000 -2.906 0.965 -0.103 0.000 0.000 0.000 -10.279 0.732 -0.026 0.000 0.000 0.000 -2.222 -0.733 0.209 -0.000 0.000 -0.000 -12.232 -39.892 -15.844 -0.885 56.376 1.229 0.258 -17.646 1.416 0.000 0.000 0.000 2.325 -38.992 9.847 0.645 52.387 -1.178 0.098 -17.570 -0.921
2.787 75.319 0.931 2.177 3.663 12.012 -3.812 13.672 -0.349 3.115 -5.225 -0.061 -10.842 -4.771 -0.705 3.157 16.006 2.105 0.000 0.000 0.000 0.000 0.000 0.000 0.000 0.000 -0.000 73.990 7.397 -2.506 -15.808 -8.510 29.270 -0.264 14.477 2.080 -0.000 0.000 -0.000 -0.000 0.000 -0.000 -0.000 0.000 -0.000 7.731 5.475 0.417 -0.000 0.000 -0.000 2.906 0.965 0.103 -0.000 0.000 -0.000 10.279 0.732 0.026 -0.000 0.000 -0.000 2.222 -0.733 -0.209 0.000 0.000 -0.000 -76.064 8.316 3.341 17.128 -9.779 -32.092 0.000 0.470 -0.066 0.000 0.000 0.000 0.000 0.000 0.000 0.000 0.000 0.000 -7.731 5.475 -0.417 0.000 0.000 0.000 -2.906 0.965 -0.103 0.000 0.000 0.000 -10.279 0.732 -0.026 0.000 0.000 0.000 -2.222 -0.733 0.209 -0.000 0.000 -0.000 -14.484 -44.458 -18.692 -1.247 62.201 1.593 0.496 -17.154 1.961 0.000 0.000 0.000 4.752 -43.390 12.671 0.909 57.931 -1.441 -0.741 -18.215 -2.883
2.733 73.253 0.416 1.542 3.671 12.511 -3.043 14.426 -0.209 2.854 -5.624 0.009 -10.169 -4.768 -0.702 1.832 15.725 2.057 0.000 0.000 0.000 0.000 0.000 0.000 0.000 -0.000 0.000 73.037 8.591 -1.667 -16.231 -8.905 30.160 -0.221 13.293 1.903 -0.000 -0.000 0.000 -0.000 -0.000 0.000 -0.000 -0.000 0.000 7.731 5.475 0.417 -0.000 -0.000 0.000 2.906 0.965 0.103 -0.000 -0.000 0.000 10.279 0.732 0.026 -0.000 -0.000 0.000 2.222 -0.733 -0.209 0.000 -0.000 0.000 -74.965 8.953 2.087 17.846 -10.521 -33.676 0.000 -0.013 0.002 -0.000 -0.000 -0.000 -0.000 -0.000 -0.000 -0.000 -0.000 -0.000 -7.731 5.475 -0.417 -0.000 -0.000 -0.000 -2.906 0.965 -0.103 -0.000 -0.000 -0.000 -10.279 0.732 -0.026 -0.000 -0.000 -0.000 -2.222 -0.733 0.209 -0.000 0.000 -0.000 -17.358 -48.771 -22.528 -1.850 68.215 2.166 1.292 -16.500 3.806 0.000 0.000 0.000 8.638 -48.187 16.552 1.382 64.501 -1.894 -1.712 -18.347 -5.050
2.636 70.748 -0.157 1.400 4.294 13.093 -2.561 15.192 -0.541 2.836 -5.730 -0.062 -9.492 -5.054 -0.710 0.488 15.501 2.034 0.000 0.000 0.000 0.000 0.000 0.000 -0.000 0.000 0.000 71.885 9.301 -0.618 -16.645 -9.300 31.048 -0.203 12.731 1.820 -0.000 0.000 -0.000 -0.000 0.000 -0.000 -0.000 0.000 -0.000 7.731 5.475 0.417 -0.000 0.000 -0.000 2.906 0.965 0.103 -0.000 0.000 -0.000 10.279 0.732 0.026 -0.000 0.000 -0.000 2.222 -0.733 -0.209 -0.000 0.000 0.000 -73.948 8.686 0.598 18.477 -11.210 -35.098 0.000 -0.224 0.031 0.000 0.000 0.000 0.000 0.000 0.000 0.000 0.000 0.000 -7.731 5.475 -0.417 0.000 0.000 0.000 -2.906 0.965 -0.103 0.000 0.000 0.000 -10.279 0.732 -0.026 0.000 0.000 0.000 -2.222 -0.733 0.209 -0.000 0.000 -0.000 -22.900 -52.772 -28.987 -3.115 74.918 3.370 2.582 -16.024 6.735 0.000 0.000 0.000 13.278 -53.535 21.209 2.355 71.919 -2.818 -2.949 -17.857 -7.782
2.542 67.509 -0.605 1.444 4.589 13.654 -2.863 15.795 -0.629 3.161 -5.802 -0.076 -9.729 -4.768 -0.863 1.089 14.915 1.696 0.000 0.000 0.000 0.000 0.000 0.000 -0.000 0.000 0.000 70.823 9.029 0.296 -16.968 -9.619 31.742 -0.214 13.064 1.869 -0.000 0.000 -0.000 -0.000 0.000 -0.000 -0.000 0.000 -0.000 7.731 5.475 0.417 -0.000 0.000 -0.000 2.906 0.965 0.103 -0.000 0.000 -0.000 10.279 0.732 0.026 -0.000 0.000 -0.000 2.222 -0.733 -0.209 -0.000 0.000 0.000 -72.974 8.458 -0.708 19.005 -11.809 -36.315 0.001 -1.092 0.154 0.000 0.000 0.000 0.000 0.000 0.000 0.000 0.000 0.000 -7.731 5.475 -0.417 0.000 0.000 0.000 -2.906 0.965 -0.103 0.000 0.000 0.000 -10.279 0.732 -0.026 0.000 0.000 0.000 -2.222 -0.733 0.209 -0.000 0.000 -0.000 -31.370 -56.724 -37.970 -7.392 82.538 7.579 3.789 -15.333 9.387 0.000 0.000 0.000 19.407 -58.550 27.281 4.777 79.434 -5.159 -4.640 -17.285 -11.426
2.416 64.062 -0.890 1.276 4.308 13.732 -3.118 16.385 0.021 3.335 -6.055 0.113 -9.881 -4.055 -0.969 1.447 14.619 1.385 0.000 0.000 0.000 0.000 0.000 0.000 -0.000 0.000 -0.000 69.889 8.735 0.530 -17.237 -9.889 32.332 -0.206 12.812 1.832 0.000 -0.000 0.000 0.000 -0.000 0.000 0.000 -0.000 0.000 7.731 5.475 0.417 0.000 -0.000 0.000 2.906 0.965 0.103 0.000 -0.000 0.000 10.279 0.732 0.026 0.000 -0.000 0.000 2.222 -0.733 -0.209 -0.000 0.000 -0.000 -71.996 8.380 -1.570 19.341 -12.204 -37.103 0.007 -2.405 0.338 0.000 0.000 0.000 0.000 0.000 0.000 0.000 0.000 0.000 -7.731 5.475 -0.417 0.000 0.000 0.000 -2.906 0.965 -0.103 0.000 0.000 0.000 -10.279 0.732 -0.026 0.000 0.000 0.000 -2.222 -0.733 0.209 -0.000 0.000 -0.000 -40.142 -59.924 -47.055 -92.062 88.897 92.178 4.740 -14.587 11.406 0.000 0.000 0.000 28.715 -61.716 36.523 16.292 86.371 -16.563 -6.568 -17.501 -14.989
2.286 60.670 -1.010 0.811 3.789 13.765 -2.699 16.981 0.334 3.300 -6.267 0.220 -9.790 -3.750 -0.906 1.339 14.976 1.438 0.000 0.000 0.000 0.000 0.000 0.000 0.000 -0.000 0.000 69.011 8.247 1.093 -17.247 -9.900 32.353 -0.216 13.120 1.877 0.000 -0.000 0.000 0.000 -0.000 0.000 0.000 -0.000 0.000 7.731 5.475 0.417 0.000 -0.000 0.000 2.906 0.965 0.103 0.000 -0.000 0.000 10.279 0.732 0.026 0.000 -0.000 0.000 2.222 -0.733 -0.209 0.000 -0.000 0.000 -71.149 7.707 -1.850 19.544 -12.449 -37.584 0.014 -3.370 0.474 -0.000 -0.000 -0.000 -0.000 -0.000 -0.000 -0.000 -0.000 -0.000 -7.731 5.475 -0.417 -0.000 -0.000 -0.000 -2.906 0.965 -0.103 -0.000 -0.000 -0.000 -10.279 0.732 -0.026 -0.000 -0.000 -0.000 -2.222 -0.733 0.209 -0.000 0.000 -0.000 -48.779 -61.849 -56.423 -169.540 83.165 169.564 5.699 -14.213 13.191 0.000 0.000 0.000 41.338 -63.325 49.169 161.886 86.254 -162.014 -8.248 -17.429 -17.839
2.100 57.396 -0.904 0.019 4.326 13.165 -2.123 17.575 -0.086 3.372 -6.303 0.127 -9.477 -3.847 -0.727 0.867 15.347 1.752 0.000 0.000 0.000 0.000 0.000 0.000 -0.000 -0.000 0.000 68.154 7.721 1.880 -17.263 -9.915 32.387 -0.232 13.581 1.946 0.000 -0.000 0.000 0.000 -0.000 0.000 0.000 -0.000 0.000 7.731 5.475 0.417 0.000 -0.000 0.000 2.906 0.965 0.103 0.000 -0.000 0.000 10.279 0.732 0.026 0.000 -0.000 0.000 2.222 -0.733 -0.209 -0.000 -0.000 0.000 -70.646 6.662 -1.698 19.758 -12.711 -38.095 0.017 -3.712 0.522 -0.000 -0.000 0.000 -0.000 -0.000 0.000 -0.000 -0.000 0.000 -7.731 5.475 -0.417 -0.000 -0.000 0.000 -2.906 0.965 -0.103 -0.000 -0.000 0.000 -10.279 0.732 -0.026 -0.000 -0.000 0.000 -2.222 -0.733 0.209 -0.000 0.000 -0.000 -58.812 -62.181 -67.044 -174.020 76.755 173.940 6.637 -13.273 15.073 0.000 0.000 0.000 54.203 -64.128 61.670 172.807 79.495 -172.775 -9.599 -16.903 -20.028
2.100 53.934 -1.044 0.272 4.031 13.430 -2.270 18.001 -0.345 3.710 -6.387 0.065 -9.350 -3.725 -0.695 0.846 15.274 1.752 0.000 0.000 0.000 0.000 0.000 0.000 -0.000 -0.000 0.000 67.548 6.702 2.083 -17.434 -10.091 32.763 -0.227 13.442 1.925 0.000 -0.000 0.000 0.000 -0.000 0.000 0.000 -0.000 0.000 7.731 5.475 0.417 0.000 -0.000 0.000 2.906 0.965 0.103 0.000 -0.000 0.000 10.279 0.732 0.026 0.000 -0.000 0.000 2.222 -0.733 -0.209 -0.000 -0.000 0.000 -70.411 5.940 -1.410 19.945 -12.943 -38.548 0.020 -4.070 0.573 -0.000 -0.000 0.000 -0.000 -0.000 0.000 -0.000 -0.000 0.000 -7.731 5.475 -0.417 -0.000 -0.000 0.000 -2.906 0.965 -0.103 -0.000 -0.000 0.000 -10.279 0.732 -0.026 -0.000 -0.000 0.000 -2.222 -0.733 0.209 -0.000 0.000 -0.000 -70.371 -61.470 -78.288 -175.536 70.405 175.350 7.433 -11.640 16.852 0.000 0.000 0.000 66.284 -64.497 73.087 174.974 73.327 -174.766 -11.078 -15.574 -22.731
2.139 50.936 -0.822 0.334 4.391 12.670 -2.275 18.739 -0.332 3.902 -6.548 0.078 -9.419 -3.777 -0.767 1.076 15.635 1.607 0.000 0.000 0.000 0.000 0.000 0.000 0.000 -0.000 0.000 67.087 5.381 2.098 -17.534 -10.194 32.983 -0.217 13.148 1.881 0.000 -0.000 0.000 0.000 -0.000 0.000 0.000 -0.000 0.000 7.731 5.475 0.417 0.000 -0.000 0.000 2.906 0.965 0.103 0.000 -0.000 0.000 10.279 0.732 0.026 0.000 -0.000 0.000 2.222 -0.733 -0.209 0.000 -0.000 0.000 -70.123 5.197 -1.399 19.891 -12.875 -38.415 0.027 -4.667 0.657 -0.000 -0.000 0.000 -0.000 -0.000 0.000 -0.000 -0.000 0.000 -7.731 5.475 -0.417 -0.000 -0.000 0.000 -2.906 0.965 -0.103 -0.000 -0.000 0.000 -10.279 0.732 -0.026 -0.000 -0.000 0.000 -2.222 -0.733 0.209 -0.000 0.000 -0.000 -79.867 -59.864 -87.235 -176.236 64.599 175.909 8.398 -10.024 18.910 0.000 0.000 0.000 77.309 -63.274 83.219 175.890 67.685 -175.506 -12.252 -13.344 -25.447
2.052 47.872 -0.609 -0.236 4.162 12.033 -1.389 19.824 -0.206 3.630 -6.617 0.133 -9.451 -3.712 -0.852 1.294 15.696 1.411 0.000 0.000 0.000 0.000 0.000 0.000 0.000 -0.000 -0.000 66.702 4.296 2.108 -17.587 -10.249 33.100 -0.215 13.102 1.875 0.000 -0.000 0.000 0.000 -0.000 0.000 0.000 -0.000 0.000 7.731 5.475 0.417 0.000 -0.000 0.000 2.906 0.965 0.103 0.000 -0.000 0.000 10.279 0.732 0.026 0.000 -0.000 0.000 2.222 -0.733 -0.209 0.000 -0.000 -0.000 -69.773 4.399 -1.668 19.666 -12.597 -37.875 0.033 -5.168 0.728 -0.000 -0.000 0.000 -0.000 -0.000 0.000 -0.000 -0.000 0.000 -7.731 5.475 -0.417 -0.000 -0.000 0.000 -2.906 0.965 -0.103 -0.000 -0.000 0.000 -10.279 0.732 -0.026 -0.000 -0.000 0.000 -2.222 -0.733 0.209 -0.000 0.000 -0.000 -86.318 -57.600 -93.461 -176.627 59.341 176.156 9.199 -7.922 20.878 0.000 0.000 0.000 86.933 -60.465 91.460 176.412 62.156 -175.852 -12.966 -10.937 -27.367
2.163 44.938 -0.444 -0.249 3.938 11.574 -1.231 20.389 -0.205 3.628 -6.565 0.132 -9.471 -3.593 -0.846 1.330 15.568 1.404 0.000 0.000 0.000 0.000 0.000 0.000 -0.000 0.000 -0.000 66.087 3.848 2.214 -17.527 -10.188 32.968 -0.200 12.633 1.805 0.000 -0.000 -0.000 0.000 -0.000 -0.000 0.000 -0.000 -0.000 7.731 5.475 0.417 0.000 -0.000 -0.000 2.906 0.965 0.103 0.000 -0.000 -0.000 10.279 0.732 0.026 0.000 -0.000 -0.000 2.222 -0.733 -0.209 -0.000 0.000 -0.000 -69.872 3.273 -1.668 19.467 -12.355 -37.401 0.041 -5.744 0.810 0.000 -0.000 0.000 0.000 -0.000 0.000 0.000 -0.000 0.000 -7.731 5.475 -0.417 0.000 -0.000 0.000 -2.906 0.965 -0.103 0.000 -0.000 0.000 -10.279 0.732 -0.026 0.000 -0.000 0.000 -2.222 -0.733 0.209 -0.000 0.000 -0.000 -93.782 -54.431 -99.696 -176.887 54.356 176.294 9.695 -4.914 22.788 0.000 0.000 0.000 94.673 -57.560 98.492 176.725 57.238 -176.004 -13.483 -8.520 -28.914
2.388 42.403 -0.298 0.195 3.349 11.266 -1.811 20.584 -0.004 3.737 -6.676 0.163 -9.447 -3.662 -0.806 1.204 16.007 1.496 0.000 0.000 0.000 0.000 0.000 0.000 -0.000 0.000 -0.000 65.518 3.447 2.164 -17.428 -10.085 32.750 -0.200 12.644 1.807 -0.000 0.000 -0.000 -0.000 0.000 -0.000 -0.000 0.000 -0.000 7.731 5.475 0.417 -0.000 0.000 -0.000 2.906 0.965 0.103 -0.000 0.000 -0.000 10.279 0.732 0.026 -0.000 0.000 -0.000 2.222 -0.733 -0.209 -0.000 0.000 -0.000 -70.161 2.306 -1.317 19.287 -12.141 -36.975 0.052 -6.500 0.917 0.000 0.000 -0.000 0.000 0.000 -0.000 0.000 0.000 -0.000 -7.731 5.475 -0.417 0.000 0.000 -0.000 -2.906 0.965 -0.103 0.000 0.000 -0.000 -10.279 0.732 -0.026 0.000 0.000 -0.000 -2.222 -0.733 0.209 -0.000 0.000 -0.000 -101.847 -50.451 -105.548 -177.065 49.653 176.360 9.941 -1.257 24.640 0.000 0.000 0.000 100.645 -54.307 104.202 176.921 52.575 -176.003 -14.179 -7.361 -29.460
2.608 39.805 -0.111 0.138 2.716 10.819 -1.636 20.828 0.338 3.632 -6.866 0.263 -9.454 -3.750 -0.748 1.061 16.198 1.641 0.000 0.000 0.000 0.000 0.000 0.000 -0.000 -0.000 0.000 64.934 3.225 1.928 -17.444 -10.101 32.785 -0.212 13.002 1.860 0.000 -0.000 0.000 0.000 -0.000 0.000 0.000 -0.000 0.000 7.731 5.475 0.417 0.000 -0.000 0.000 2.906 0.965 0.103 0.000 -0.000 0.000 10.279 0.732 0.026 0.000 -0.000 0.000 2.222 -0.733 -0.209 -0.000 -0.000 0.000 -70.527 1.707 -0.765 19.139 -11.966 -36.630 0.062 -7.080 1.000 -0.000 -0.000 -0.000 -0.000 -0.000 -0.000 -0.000 -0.000 -0.000 -7.731 5.475 -0.417 -0.000 -0.000 -0.000 -2.906 0.965 -0.103 -0.000 -0.000 -0.000 -10.279 0.732 -0.026 -0.000 -0.000 -0.000 -2.222 -0.733 0.209 -0.000 0.000 -0.000 -108.311 -46.501 -110.216 -177.189 45.347 176.371 9.988 2.262 25.888 0.000 0.000 0.000 106.114 -49.599 108.195 177.053 47.924 -175.836 -15.411 -5.993 -30.604
2.710 37.457 0.110 -0.212 1.936 10.245 -1.105 21.235 0.579 3.637 -6.983 0.357 -9.267 -3.836 -0.653 0.612 15.973 1.832 0.000 0.000 0.000 0.000 0.000 0.000 0.000 -0.000 0.000 64.334 3.046 1.892 -17.416 -10.073 32.724 -0.210 12.943 1.851 0.000 -0.000 0.000 0.000 -0.000 0.000 0.000 -0.000 0.000 7.731 5.475 0.417 0.000 -0.000 0.000 2.906 0.965 0.103 0.000 -0.000 0.000 10.279 0.732 0.026 0.000 -0.000 0.000 2.222 -0.733 -0.209 0.000 -0.000 0.000 -71.162 0.527 -0.184 19.005 -11.810 -36.316 0.061 -7.008 0.990 -0.000 -0.000 0.000 -0.000 -0.000 0.000 -0.000 -0.000 0.000 -7.731 5.475 -0.417 -0.000 -0.000 0.000 -2.906 0.965 -0.103 -0.000 -0.000 0.000 -10.279 0.732 -0.026 -0.000 -0.000 0.000 -2.222 -0.733 0.209 -0.000 0.000 -0.000 -112.877 -42.684 -113.239 -177.264 41.650 176.305 10.151 5.403 26.909 0.000 0.000 0.000 110.208 -44.322 109.695 177.112 44.100 -175.513 -17.069 -3.331 -33.460
2.766 35.187 0.371 -0.690 1.295 9.557 -1.007 21.778 0.976 3.731 -7.268 0.482 -9.734 -3.728 -0.709 2.005 15.639 1.671 0.000 0.000 0.000 0.000 0.000 0.000 0.000 -0.000 -0.000 63.985 2.910 1.643 -17.464 -10.122 32.829 -0.201 12.659 1.809 0.000 -0.000 0.000 0.000 -0.000 0.000 0.000 -0.000 0.000 7.731 5.475 0.417 0.000 -0.000 0.000 2.906 0.965 0.103 0.000 -0.000 0.000 10.279 0.732 0.026 0.000 -0.000 0.000 2.222 -0.733 -0.209 0.000 -0.000 -0.000 -71.650 -0.338 0.297 18.870 -11.654 -36.004 0.062 -7.082 1.000 -0.000 -0.000 -0.000 -0.000 -0.000 -0.000 -0.000 -0.000 -0.000 -7.731 5.475 -0.417 -0.000 -0.000 -0.000 -2.906 0.965 -0.103 -0.000 -0.000 -0.000 -10.279 0.732 -0.026 -0.000 -0.000 -0.000 -2.222 -0.733 0.209 -0.000 0.000 -0.000 -117.083 -38.097 -115.255 -177.322 38.187 176.221 10.258 9.108 28.121 0.000 0.000 0.000 113.842 -39.116 110.581 177.133 40.696 -175.087 -18.621 -0.895 -35.654
2.884 33.140 0.679 -0.507 0.713 8.821 -0.901 22.277 1.351 3.772 -7.483 0.597 -10.162 -3.751 -0.782 3.458 15.455 1.485 0.000 0.000 0.000 0.000 0.000 0.000 0.000 -0.000 0.000 63.835 2.795 1.317 -17.542 -10.203 33.002 -0.193 12.421 1.774 0.000 -0.000 0.000 0.000 -0.000 0.000 0.000 -0.000 0.000 7.731 5.475 0.417 0.000 -0.000 0.000 2.906 0.965 0.103 0.000 -0.000 0.000 10.279 0.732 0.026 0.000 -0.000 0.000 2.222 -0.733 -0.209 0.000 -0.000 0.000 -71.822 -0.677 0.625 18.666 -11.422 -35.531 0.067 -7.366 1.041 -0.000 -0.000 -0.000 -0.000 -0.000 -0.000 -0.000 -0.000 -0.000 -7.731 5.475 -0.417 -0.000 -0.000 -0.000 -2.906 0.965 -0.103 -0.000 -0.000 -0.000 -10.279 0.732 -0.026 -0.000 -0.000 -0.000 -2.222 -0.733 0.209 -0.000 0.000 -0.000 -121.057 -33.262 -116.839 -177.352 34.934 176.051 10.334 12.653 28.784 0.000 0.000 0.000 117.761 -33.343 111.377 177.134 37.271 -174.572 -19.733 1.655 -36.691
2.880 31.358 0.960 -0.924 0.271 8.215 -0.717 22.521 1.416 3.864 -7.455 0.628 -10.090 -3.997 -0.784 3.292 15.583 1.509 0.000 0.000 0.000 0.000 0.000 0.000 0.000 -0.000 0.000 63.819 2.418 1.240 -17.549 -10.209 33.015 -0.190 12.340 1.762 0.000 -0.000 0.000 0.000 -0.000 0.000 0.000 -0.000 0.000 7.731 5.475 0.417 0.000 -0.000 0.000 2.906 0.965 0.103 0.000 -0.000 0.000 10.279 0.732 0.026 0.000 -0.000 0.000 2.222 -0.733 -0.209 0.000 -0.000 0.000 -71.915 -1.261 0.735 18.372 -11.092 -34.859 0.068 -7.406 1.047 -0.000 -0.000 -0.000 -0.000 -0.000 -0.000 -0.000 -0.000 -0.000 -7.731 5.475 -0.417 -0.000 -0.000 -0.000 -2.906 0.965 -0.103 -0.000 -0.000 -0.000 -10.279 0.732 -0.026 -0.000 -0.000 -0.000 -2.222 -0.733 0.209 -0.000 0.000 -0.000 -124.588 -28.201 -117.915 -177.361 31.986 175.781 10.457 16.010 28.978 0.000 0.000 0.000 121.505 -27.885 111.885 177.137 34.128 -174.119 -20.036 4.851 -37.027
2.969 29.817 1.205 -0.813 -0.098 7.605 -0.727 22.827 1.443 3.874 -7.464 0.628 -10.054 -4.162 -0.806 3.235 15.734 1.479 0.000 0.000 0.000 0.000 0.000 0.000 0.000 0.000 -0.000 64.043 2.268 1.214 -17.565 -10.226 33.051 -0.181 12.029 1.716 0.000 -0.000 0.000 0.000 -0.000 0.000 0.000 -0.000 0.000 7.731 5.475 0.417 0.000 -0.000 0.000 2.906 0.965 0.103 0.000 -0.000 0.000 10.279 0.732 0.026 0.000 -0.000 0.000 2.222 -0.733 -0.209 0.000 0.000 -0.000 -71.882 -1.999 0.626 18.108 -10.804 -34.263 0.062 -7.070 0.999 -0.000 -0.000 -0.000 -0.000 -0.000 -0.000 -0.000 -0.000 -0.000 -7.731 5.475 -0.417 -0.000 -0.000 -0.000 -2.906 0.965 -0.103 -0.000 -0.000 -0.000 -10.279 0.732 -0.026 -0.000 -0.000 -0.000 -2.222 -0.733 0.209 -0.000 0.000 -0.000 -128.135 -23.298 -118.447 -177.360 29.385 175.497 10.386 19.665 28.995 0.000 0.000 0.000 124.941 -23.091 111.999 177.104 31.419 -173.543 -20.360 7.361 -36.649
3.021 28.565 1.409 -0.812 -0.465 7.061 -0.843 23.211 1.599 3.872 -7.623 0.667 -9.729 -4.164 -0.776 2.995 15.822 1.454 0.000 0.000 0.000 0.000 0.000 0.000 0.000 0.000 -0.000 64.395 2.225 1.135 -17.501 -10.160 32.910 -0.194 12.461 1.780 -0.000 0.000 -0.000 -0.000 0.000 -0.000 -0.000 0.000 -0.000 7.731 5.475 0.417 -0.000 0.000 -0.000 2.906 0.965 0.103 -0.000 0.000 -0.000 10.279 0.732 0.026 -0.000 0.000 -0.000 2.222 -0.733 -0.209 0.000 0.000 -0.000 -71.923 -2.521 0.678 17.908 -10.588 -33.815 0.058 -6.856 0.968 0.000 0.000 0.000 0.000 0.000 0.000 0.000 0.000 0.000 -7.731 5.475 -0.417 0.000 0.000 0.000 -2.906 0.965 -0.103 0.000 0.000 0.000 -10.279 0.732 -0.026 0.000 0.000 0.000 -2.222 -0.733 0.209 -0.000 0.000 -0.000 -131.875 -19.254 -118.908 -177.347 27.226 175.190 10.316 23.206 28.903 0.000 0.000 0.000 128.061 -18.577 111.378 177.054 29.132 -172.831 -21.047 9.400 -36.304
3.083 27.539 1.595 -0.862 -0.740 6.498 -0.808 23.261 1.651 3.921 -7.600 0.690 -9.740 -4.154 -0.786 3.117 15.883 1.414 0.000 0.000 0.000 0.000 0.000 0.000 0.000 -0.000 0.000 64.590 2.408 1.129 -17.373 -10.028 32.629 -0.211 12.981 1.857 0.000 -0.000 0.000 0.000 -0.000 0.000 0.000 -0.000 0.000 7.731 5.475 0.417 0.000 -0.000 0.000 2.906 0.965 0.103 0.000 -0.000 0.000 10.279 0.732 0.026 0.000 -0.000 0.000 2.222 -0.733 -0.209 0.000 -0.000 0.000 -72.125 -2.688 0.664 17.729 -10.399 -33.416 0.063 -7.118 1.006 -0.000 -0.000 -0.000 -0.000 -0.000 -0.000 -0.000 -0.000 -0.000 -7.731 5.475 -0.417 -0.000 -0.000 -0.000 -2.906 0.965 -0.103 -0.000 -0.000 -0.000 -10.279 0.732 -0.026 -0.000 -0.000 -0.000 -2.222 -0.733 0.209 -0.000 0.000 -0.000 -135.197 -15.689 -119.468 -177.339 25.509 174.967 9.982 26.577 28.477 0.000 0.000 0.000 131.189 -14.683 110.690 177.000 27.315 -172.185 -21.517 11.781 -36.278
3.136 26.813 1.696 -0.801 -1.004 6.208 -0.746 23.208 1.651 3.988 -7.358 0.689 -9.722 -4.364 -0.807 3.160 15.886 1.391 0.000 0.000 0.000 0.000 0.000 0.000 0.000 -0.000 0.000 64.921 2.625 1.163 -17.330 -9.984 32.535 -0.218 13.172 1.885 0.000 -0.000 0.000 0.000 -0.000 0.000 0.000 -0.000 0.000 7.731 5.475 0.417 0.000 -0.000 0.000 2.906 0.965 0.103 0.000 -0.000 0.000 10.279 0.732 0.026 0.000 -0.000 0.000 2.222 -0.733 -0.209 0.000 -0.000 0.000 -72.309 -3.131 0.387 17.501 -10.160 -32.910 0.059 -6.904 0.975 -0.000 -0.000 -0.000 -0.000 -0.000 -0.000 -0.000 -0.000 -0.000 -7.731 5.475 -0.417 -0.000 -0.000 -0.000 -2.906 0.965 -0.103 -0.000 -0.000 -0.000 -10.279 0.732 -0.026 -0.000 -0.000 -0.000 -2.222 -0.733 0.209 -0.000 0.000 -0.000 -137.564 -12.984 -119.748 -177.333 24.285 174.821 9.617 29.310 27.886 0.000 0.000 0.000 133.938 -11.821 109.829 176.960 26.069 -171.704 -21.909 14.496 -37.031
3.111 26.421 1.765 -0.867 -1.153 5.817 -0.912 23.452 1.572 4.235 -7.521 0.679 -9.514 -4.370 -0.717 2.787 15.760 1.547 0.000 0.000 0.000 0.000 0.000 0.000 -0.000 -0.000 0.000 65.428 2.823 0.803 -17.412 -10.069 32.715 -0.223 13.340 1.910 0.000 -0.000 0.000 0.000 -0.000 0.000 0.000 -0.000 0.000 7.731 5.475 0.417 0.000 -0.000 0.000 2.906 0.965 0.103 0.000 -0.000 0.000 10.279 0.732 0.026 0.000 -0.000 0.000 2.222 -0.733 -0.209 -0.000 -0.000 0.000 -72.501 -3.324 0.497 17.353 -10.007 -32.584 0.053 -6.545 0.924 -0.000 -0.000 -0.000 -0.000 -0.000 -0.000 -0.000 -0.000 -0.000 -7.731 5.475 -0.417 -0.000 -0.000 -0.000 -2.906 0.965 -0.103 -0.000 -0.000 -0.000 -10.279 0.732 -0.026 -0.000 -0.000 -0.000 -2.222 -0.733 0.209 -0.000 0.000 -0.000 -139.231 -11.420 -119.634 -177.324 23.587 174.684 9.568 30.993 27.877 0.000 0.000 0.000 135.291 -10.331 108.833 176.924 25.518 -171.352 -22.434 16.150 -38.127
3.131 26.277 1.701 -0.641 -1.123 5.740 -0.885 23.544 1.369 4.361 -7.507 0.631 -9.464 -4.508 -0.664 2.761 15.791 1.655 0.000 0.000 0.000 0.000 0.000 0.000 -0.000 0.000 0.000 65.903 2.884 0.662 -17.452 -10.109 32.802 -0.226 13.411 1.920 -0.000 0.000 -0.000 -0.000 0.000 -0.000 -0.000 0.000 -0.000 7.731 5.475 0.417 -0.000 0.000 -0.000 2.906 0.965 0.103 -0.000 0.000 -0.000 10.279 0.732 0.026 -0.000 0.000 -0.000 2.222 -0.733 -0.209 -0.000 0.000 0.000 -72.712 -2.973 0.514 17.365 -10.020 -32.610 0.061 -7.052 0.996 0.000 0.000 0.000 0.000 0.000 0.000 0.000 0.000 0.000 -7.731 5.475 -0.417 0.000 0.000 0.000 -2.906 0.965 -0.103 0.000 0.000 0.000 -10.279 0.732 -0.026 0.000 0.000 0.000 -2.222 -0.733 0.209 -0.000 0.000 -0.000 -139.644 -10.903 -119.203 -177.326 23.421 174.680 9.635 31.727 28.296 0.000 0.000 0.000 135.948 -10.053 108.372 176.903 25.506 -171.173 -22.998 16.690 -39.126
